<?xml version="1.0" encoding="UTF-8" standalone="no" ?>
<gpx xmlns="http://www.topografix.com/GPX/1/1" creator="http://nakarte.me" xmlns:xsi="http://www.w3.org/2001/XMLSchema-instance" xsi:schemaLocation="http://www.topografix.com/GPX/1/1 http://www.topografix.com/GPX/1/1/gpx.xsd" version="1.1">
	<metadata>
		<time>2026-08-11T12:44:02.355Z</time>
	</metadata>
	<trk>
		<name>Т7 (обнов) 2026</name>
		<trkseg>
			<trkpt lat="56.755758" lon="36.037313"><time>1970-01-01T00:00:01.000Z</time></trkpt>
			<trkpt lat="56.755810" lon="36.037097"><time>1970-01-01T00:00:01.000Z</time></trkpt>
			<trkpt lat="56.755767" lon="36.036773"><time>1970-01-01T00:00:01.000Z</time></trkpt>
			<trkpt lat="56.755670" lon="36.036661"><time>1970-01-01T00:00:01.000Z</time></trkpt>
			<trkpt lat="56.755468" lon="36.036824"><time>1970-01-01T00:00:01.000Z</time></trkpt>
			<trkpt lat="56.755405" lon="36.036819"><time>1970-01-01T00:00:01.000Z</time></trkpt>
			<trkpt lat="56.755196" lon="36.036020"><time>1970-01-01T00:00:01.000Z</time></trkpt>
			<trkpt lat="56.755246" lon="36.035758"><time>1970-01-01T00:00:01.000Z</time></trkpt>
			<trkpt lat="56.755285" lon="36.035698"><time>1970-01-01T00:00:01.000Z</time></trkpt>
			<trkpt lat="56.755385" lon="36.035660"><time>1970-01-01T00:00:01.000Z</time></trkpt>
			<trkpt lat="56.755663" lon="36.035838"><time>1970-01-01T00:00:01.000Z</time></trkpt>
			<trkpt lat="56.756075" lon="36.036400"><time>1970-01-01T00:00:01.000Z</time></trkpt>
			<trkpt lat="56.756302" lon="36.036507"><time>1970-01-01T00:00:01.000Z</time></trkpt>
			<trkpt lat="56.756684" lon="36.036931"><time>1970-01-01T00:00:01.000Z</time></trkpt>
			<trkpt lat="56.756785" lon="36.036974"><time>1970-01-01T00:00:01.000Z</time></trkpt>
			<trkpt lat="56.756966" lon="36.036812"><time>1970-01-01T00:00:01.000Z</time></trkpt>
			<trkpt lat="56.757556" lon="36.035917"><time>1970-01-01T00:00:01.000Z</time></trkpt>
			<trkpt lat="56.757763" lon="36.035547"><time>1970-01-01T00:00:01.000Z</time></trkpt>
			<trkpt lat="56.758042" lon="36.034568"><time>1970-01-01T00:00:01.000Z</time></trkpt>
			<trkpt lat="56.758173" lon="36.033669"><time>1970-01-01T00:00:01.000Z</time></trkpt>
			<trkpt lat="56.758421" lon="36.033037"><time>1970-01-01T00:00:01.000Z</time></trkpt>
			<trkpt lat="56.758506" lon="36.032731"><time>1970-01-01T00:00:01.000Z</time></trkpt>
			<trkpt lat="56.758638" lon="36.032566"><time>1970-01-01T00:00:01.000Z</time></trkpt>
			<trkpt lat="56.758916" lon="36.031912"><time>1970-01-01T00:00:01.000Z</time></trkpt>
			<trkpt lat="56.759145" lon="36.031671"><time>1970-01-01T00:00:01.000Z</time></trkpt>
			<trkpt lat="56.759323" lon="36.030944"><time>1970-01-01T00:00:01.000Z</time></trkpt>
			<trkpt lat="56.759343" lon="36.030666"><time>1970-01-01T00:00:01.000Z</time></trkpt>
			<trkpt lat="56.759481" lon="36.030207"><time>1970-01-01T00:00:01.000Z</time></trkpt>
			<trkpt lat="56.759624" lon="36.030012"><time>1970-01-01T00:00:01.000Z</time></trkpt>
			<trkpt lat="56.759788" lon="36.029939"><time>1970-01-01T00:00:01.000Z</time></trkpt>
			<trkpt lat="56.759894" lon="36.029647"><time>1970-01-01T00:00:01.000Z</time></trkpt>
			<trkpt lat="56.759959" lon="36.029604"><time>1970-01-01T00:00:01.000Z</time></trkpt>
			<trkpt lat="56.759998" lon="36.029520"><time>1970-01-01T00:00:01.000Z</time></trkpt>
			<trkpt lat="56.760408" lon="36.029306"><time>1970-01-01T00:00:01.000Z</time></trkpt>
			<trkpt lat="56.760419" lon="36.029231"><time>1970-01-01T00:00:01.000Z</time></trkpt>
			<trkpt lat="56.760669" lon="36.029109"><time>1970-01-01T00:00:01.000Z</time></trkpt>
			<trkpt lat="56.760796" lon="36.028996"><time>1970-01-01T00:00:01.000Z</time></trkpt>
			<trkpt lat="56.760920" lon="36.028939"><time>1970-01-01T00:00:01.000Z</time></trkpt>
			<trkpt lat="56.761056" lon="36.028779"><time>1970-01-01T00:00:01.000Z</time></trkpt>
			<trkpt lat="56.761176" lon="36.028738"><time>1970-01-01T00:00:01.000Z</time></trkpt>
			<trkpt lat="56.761234" lon="36.028756"><time>1970-01-01T00:00:01.000Z</time></trkpt>
			<trkpt lat="56.761396" lon="36.028994"><time>1970-01-01T00:00:01.000Z</time></trkpt>
			<trkpt lat="56.761480" lon="36.029046"><time>1970-01-01T00:00:01.000Z</time></trkpt>
			<trkpt lat="56.761542" lon="36.029042"><time>1970-01-01T00:00:01.000Z</time></trkpt>
			<trkpt lat="56.761846" lon="36.028781"><time>1970-01-01T00:00:01.000Z</time></trkpt>
			<trkpt lat="56.761908" lon="36.028779"><time>1970-01-01T00:00:01.000Z</time></trkpt>
			<trkpt lat="56.762015" lon="36.028976"><time>1970-01-01T00:00:01.000Z</time></trkpt>
			<trkpt lat="56.762067" lon="36.028967"><time>1970-01-01T00:00:01.000Z</time></trkpt>
			<trkpt lat="56.762246" lon="36.028703"><time>1970-01-01T00:00:01.000Z</time></trkpt>
			<trkpt lat="56.762595" lon="36.028529"><time>1970-01-01T00:00:01.000Z</time></trkpt>
			<trkpt lat="56.762866" lon="36.028232"><time>1970-01-01T00:00:01.000Z</time></trkpt>
			<trkpt lat="56.762909" lon="36.028143"><time>1970-01-01T00:00:01.000Z</time></trkpt>
			<trkpt lat="56.763045" lon="36.028074"><time>1970-01-01T00:00:01.000Z</time></trkpt>
			<trkpt lat="56.763400" lon="36.028030"><time>1970-01-01T00:00:01.000Z</time></trkpt>
			<trkpt lat="56.763639" lon="36.027809"><time>1970-01-01T00:00:01.000Z</time></trkpt>
			<trkpt lat="56.763724" lon="36.027805"><time>1970-01-01T00:00:01.000Z</time></trkpt>
			<trkpt lat="56.763808" lon="36.027898"><time>1970-01-01T00:00:01.000Z</time></trkpt>
			<trkpt lat="56.763868" lon="36.028030"><time>1970-01-01T00:00:01.000Z</time></trkpt>
			<trkpt lat="56.763888" lon="36.028281"><time>1970-01-01T00:00:01.000Z</time></trkpt>
			<trkpt lat="56.764005" lon="36.028630"><time>1970-01-01T00:00:01.000Z</time></trkpt>
			<trkpt lat="56.764135" lon="36.028857"><time>1970-01-01T00:00:01.000Z</time></trkpt>
			<trkpt lat="56.764191" lon="36.028895"><time>1970-01-01T00:00:01.000Z</time></trkpt>
			<trkpt lat="56.764351" lon="36.028589"><time>1970-01-01T00:00:01.000Z</time></trkpt>
			<trkpt lat="56.764560" lon="36.028375"><time>1970-01-01T00:00:01.000Z</time></trkpt>
			<trkpt lat="56.764690" lon="36.028144"><time>1970-01-01T00:00:01.000Z</time></trkpt>
			<trkpt lat="56.764867" lon="36.027982"><time>1970-01-01T00:00:01.000Z</time></trkpt>
			<trkpt lat="56.765065" lon="36.027586"><time>1970-01-01T00:00:01.000Z</time></trkpt>
			<trkpt lat="56.765156" lon="36.027331"><time>1970-01-01T00:00:01.000Z</time></trkpt>
			<trkpt lat="56.765210" lon="36.027037"><time>1970-01-01T00:00:01.000Z</time></trkpt>
			<trkpt lat="56.765557" lon="36.026271"><time>1970-01-01T00:00:01.000Z</time></trkpt>
			<trkpt lat="56.765661" lon="36.026142"><time>1970-01-01T00:00:01.000Z</time></trkpt>
			<trkpt lat="56.765990" lon="36.025922"><time>1970-01-01T00:00:01.000Z</time></trkpt>
			<trkpt lat="56.766065" lon="36.025978"><time>1970-01-01T00:00:01.000Z</time></trkpt>
			<trkpt lat="56.766134" lon="36.025940"><time>1970-01-01T00:00:01.000Z</time></trkpt>
			<trkpt lat="56.766180" lon="36.025773"><time>1970-01-01T00:00:01.000Z</time></trkpt>
			<trkpt lat="56.766532" lon="36.025343"><time>1970-01-01T00:00:01.000Z</time></trkpt>
			<trkpt lat="56.766673" lon="36.025014"><time>1970-01-01T00:00:01.000Z</time></trkpt>
			<trkpt lat="56.766672" lon="36.024552"><time>1970-01-01T00:00:01.000Z</time></trkpt>
			<trkpt lat="56.766700" lon="36.024448"><time>1970-01-01T00:00:01.000Z</time></trkpt>
			<trkpt lat="56.767009" lon="36.024033"><time>1970-01-01T00:00:01.000Z</time></trkpt>
			<trkpt lat="56.767154" lon="36.023707"><time>1970-01-01T00:00:01.000Z</time></trkpt>
			<trkpt lat="56.767496" lon="36.023255"><time>1970-01-01T00:00:01.000Z</time></trkpt>
			<trkpt lat="56.767595" lon="36.023176"><time>1970-01-01T00:00:01.000Z</time></trkpt>
			<trkpt lat="56.767900" lon="36.022714"><time>1970-01-01T00:00:01.000Z</time></trkpt>
			<trkpt lat="56.767914" lon="36.022547"><time>1970-01-01T00:00:01.000Z</time></trkpt>
			<trkpt lat="56.767769" lon="36.022074"><time>1970-01-01T00:00:01.000Z</time></trkpt>
			<trkpt lat="56.767649" lon="36.021519"><time>1970-01-01T00:00:01.000Z</time></trkpt>
			<trkpt lat="56.767648" lon="36.021410"><time>1970-01-01T00:00:01.000Z</time></trkpt>
			<trkpt lat="56.767756" lon="36.021087"><time>1970-01-01T00:00:01.000Z</time></trkpt>
			<trkpt lat="56.767735" lon="36.020882"><time>1970-01-01T00:00:01.000Z</time></trkpt>
			<trkpt lat="56.767783" lon="36.020528"><time>1970-01-01T00:00:01.000Z</time></trkpt>
			<trkpt lat="56.767747" lon="36.020403"><time>1970-01-01T00:00:01.000Z</time></trkpt>
			<trkpt lat="56.767410" lon="36.020006"><time>1970-01-01T00:00:01.000Z</time></trkpt>
			<trkpt lat="56.767332" lon="36.019965"><time>1970-01-01T00:00:01.000Z</time></trkpt>
			<trkpt lat="56.767202" lon="36.019818"><time>1970-01-01T00:00:01.000Z</time></trkpt>
			<trkpt lat="56.767134" lon="36.019698"><time>1970-01-01T00:00:01.000Z</time></trkpt>
			<trkpt lat="56.767120" lon="36.019450"><time>1970-01-01T00:00:01.000Z</time></trkpt>
			<trkpt lat="56.767168" lon="36.019382"><time>1970-01-01T00:00:01.000Z</time></trkpt>
			<trkpt lat="56.767154" lon="36.019070"><time>1970-01-01T00:00:01.000Z</time></trkpt>
			<trkpt lat="56.767201" lon="36.018771"><time>1970-01-01T00:00:01.000Z</time></trkpt>
			<trkpt lat="56.767095" lon="36.018694"><time>1970-01-01T00:00:01.000Z</time></trkpt>
			<trkpt lat="56.766769" lon="36.018371"><time>1970-01-01T00:00:01.000Z</time></trkpt>
			<trkpt lat="56.766677" lon="36.018226"><time>1970-01-01T00:00:01.000Z</time></trkpt>
			<trkpt lat="56.766599" lon="36.017905"><time>1970-01-01T00:00:01.000Z</time></trkpt>
			<trkpt lat="56.766535" lon="36.017811"><time>1970-01-01T00:00:01.000Z</time></trkpt>
			<trkpt lat="56.766447" lon="36.017745"><time>1970-01-01T00:00:01.000Z</time></trkpt>
			<trkpt lat="56.766132" lon="36.017727"><time>1970-01-01T00:00:01.000Z</time></trkpt>
			<trkpt lat="56.766158" lon="36.017596"><time>1970-01-01T00:00:01.000Z</time></trkpt>
			<trkpt lat="56.766282" lon="36.017353"><time>1970-01-01T00:00:01.000Z</time></trkpt>
			<trkpt lat="56.766429" lon="36.016244"><time>1970-01-01T00:00:01.000Z</time></trkpt>
			<trkpt lat="56.766573" lon="36.015841"><time>1970-01-01T00:00:01.000Z</time></trkpt>
			<trkpt lat="56.766568" lon="36.015605"><time>1970-01-01T00:00:01.000Z</time></trkpt>
			<trkpt lat="56.766470" lon="36.015365"><time>1970-01-01T00:00:01.000Z</time></trkpt>
			<trkpt lat="56.766381" lon="36.015265"><time>1970-01-01T00:00:01.000Z</time></trkpt>
			<trkpt lat="56.766129" lon="36.015105"><time>1970-01-01T00:00:01.000Z</time></trkpt>
			<trkpt lat="56.765823" lon="36.014937"><time>1970-01-01T00:00:01.000Z</time></trkpt>
			<trkpt lat="56.765654" lon="36.014884"><time>1970-01-01T00:00:01.000Z</time></trkpt>
			<trkpt lat="56.765221" lon="36.014526"><time>1970-01-01T00:00:01.000Z</time></trkpt>
			<trkpt lat="56.764523" lon="36.014152"><time>1970-01-01T00:00:01.000Z</time></trkpt>
			<trkpt lat="56.764245" lon="36.013935"><time>1970-01-01T00:00:01.000Z</time></trkpt>
			<trkpt lat="56.763868" lon="36.013732"><time>1970-01-01T00:00:01.000Z</time></trkpt>
			<trkpt lat="56.763131" lon="36.013213"><time>1970-01-01T00:00:01.000Z</time></trkpt>
			<trkpt lat="56.762562" lon="36.012693"><time>1970-01-01T00:00:01.000Z</time></trkpt>
			<trkpt lat="56.762365" lon="36.012434"><time>1970-01-01T00:00:01.000Z</time></trkpt>
			<trkpt lat="56.762206" lon="36.012290"><time>1970-01-01T00:00:01.000Z</time></trkpt>
			<trkpt lat="56.762118" lon="36.012009"><time>1970-01-01T00:00:01.000Z</time></trkpt>
			<trkpt lat="56.762283" lon="36.011680"><time>1970-01-01T00:00:01.000Z</time></trkpt>
			<trkpt lat="56.762578" lon="36.010888"><time>1970-01-01T00:00:01.000Z</time></trkpt>
			<trkpt lat="56.762822" lon="36.010371"><time>1970-01-01T00:00:01.000Z</time></trkpt>
			<trkpt lat="56.763038" lon="36.009682"><time>1970-01-01T00:00:01.000Z</time></trkpt>
			<trkpt lat="56.763237" lon="36.009412"><time>1970-01-01T00:00:01.000Z</time></trkpt>
			<trkpt lat="56.763920" lon="36.007832"><time>1970-01-01T00:00:01.000Z</time></trkpt>
			<trkpt lat="56.764074" lon="36.007306"><time>1970-01-01T00:00:01.000Z</time></trkpt>
			<trkpt lat="56.764234" lon="36.006992"><time>1970-01-01T00:00:01.000Z</time></trkpt>
			<trkpt lat="56.764460" lon="36.006161"><time>1970-01-01T00:00:01.000Z</time></trkpt>
			<trkpt lat="56.764507" lon="36.005842"><time>1970-01-01T00:00:01.000Z</time></trkpt>
			<trkpt lat="56.764499" lon="36.005873"><time>1970-01-01T00:00:01.000Z</time></trkpt>
			<trkpt lat="56.764436" lon="36.005608"><time>1970-01-01T00:00:01.000Z</time></trkpt>
			<trkpt lat="56.764366" lon="36.005539"><time>1970-01-01T00:00:01.000Z</time></trkpt>
			<trkpt lat="56.764367" lon="36.005278"><time>1970-01-01T00:00:01.000Z</time></trkpt>
			<trkpt lat="56.764332" lon="36.005179"><time>1970-01-01T00:00:01.000Z</time></trkpt>
			<trkpt lat="56.764022" lon="36.004722"><time>1970-01-01T00:00:01.000Z</time></trkpt>
			<trkpt lat="56.763897" lon="36.004625"><time>1970-01-01T00:00:01.000Z</time></trkpt>
			<trkpt lat="56.763781" lon="36.004353"><time>1970-01-01T00:00:01.000Z</time></trkpt>
			<trkpt lat="56.763697" lon="36.003893"><time>1970-01-01T00:00:01.000Z</time></trkpt>
			<trkpt lat="56.763790" lon="36.003336"><time>1970-01-01T00:00:01.000Z</time></trkpt>
			<trkpt lat="56.763697" lon="36.003029"><time>1970-01-01T00:00:01.000Z</time></trkpt>
			<trkpt lat="56.763624" lon="36.002884"><time>1970-01-01T00:00:01.000Z</time></trkpt>
			<trkpt lat="56.763430" lon="36.002679"><time>1970-01-01T00:00:01.000Z</time></trkpt>
			<trkpt lat="56.763276" lon="36.002371"><time>1970-01-01T00:00:01.000Z</time></trkpt>
			<trkpt lat="56.763027" lon="36.002143"><time>1970-01-01T00:00:01.000Z</time></trkpt>
			<trkpt lat="56.762957" lon="36.001956"><time>1970-01-01T00:00:01.000Z</time></trkpt>
			<trkpt lat="56.762842" lon="36.001862"><time>1970-01-01T00:00:01.000Z</time></trkpt>
			<trkpt lat="56.762774" lon="36.001737"><time>1970-01-01T00:00:01.000Z</time></trkpt>
			<trkpt lat="56.762654" lon="36.001462"><time>1970-01-01T00:00:01.000Z</time></trkpt>
			<trkpt lat="56.762614" lon="36.001410"><time>1970-01-01T00:00:01.000Z</time></trkpt>
			<trkpt lat="56.762515" lon="36.001380"><time>1970-01-01T00:00:01.000Z</time></trkpt>
			<trkpt lat="56.762269" lon="36.001642"><time>1970-01-01T00:00:01.000Z</time></trkpt>
			<trkpt lat="56.761917" lon="36.001870"><time>1970-01-01T00:00:01.000Z</time></trkpt>
			<trkpt lat="56.761620" lon="36.001861"><time>1970-01-01T00:00:01.000Z</time></trkpt>
			<trkpt lat="56.761405" lon="36.001792"><time>1970-01-01T00:00:01.000Z</time></trkpt>
			<trkpt lat="56.761259" lon="36.001880"><time>1970-01-01T00:00:01.000Z</time></trkpt>
			<trkpt lat="56.761024" lon="36.002498"><time>1970-01-01T00:00:01.000Z</time></trkpt>
			<trkpt lat="56.760957" lon="36.002768"><time>1970-01-01T00:00:01.000Z</time></trkpt>
			<trkpt lat="56.760961" lon="36.003101"><time>1970-01-01T00:00:01.000Z</time></trkpt>
			<trkpt lat="56.760743" lon="36.004184"><time>1970-01-01T00:00:01.000Z</time></trkpt>
			<trkpt lat="56.760603" lon="36.004349"><time>1970-01-01T00:00:01.000Z</time></trkpt>
			<trkpt lat="56.760424" lon="36.004287"><time>1970-01-01T00:00:01.000Z</time></trkpt>
			<trkpt lat="56.760163" lon="36.004349"><time>1970-01-01T00:00:01.000Z</time></trkpt>
			<trkpt lat="56.760092" lon="36.004441"><time>1970-01-01T00:00:01.000Z</time></trkpt>
			<trkpt lat="56.759954" lon="36.004885"><time>1970-01-01T00:00:01.000Z</time></trkpt>
			<trkpt lat="56.759865" lon="36.004970"><time>1970-01-01T00:00:01.000Z</time></trkpt>
			<trkpt lat="56.759642" lon="36.005081"><time>1970-01-01T00:00:01.000Z</time></trkpt>
			<trkpt lat="56.759465" lon="36.005333"><time>1970-01-01T00:00:01.000Z</time></trkpt>
			<trkpt lat="56.759225" lon="36.005811"><time>1970-01-01T00:00:01.000Z</time></trkpt>
			<trkpt lat="56.759026" lon="36.005975"><time>1970-01-01T00:00:01.000Z</time></trkpt>
			<trkpt lat="56.758997" lon="36.006046"><time>1970-01-01T00:00:01.000Z</time></trkpt>
			<trkpt lat="56.758970" lon="36.006404"><time>1970-01-01T00:00:01.000Z</time></trkpt>
			<trkpt lat="56.759007" lon="36.006613"><time>1970-01-01T00:00:01.000Z</time></trkpt>
			<trkpt lat="56.759092" lon="36.006788"><time>1970-01-01T00:00:01.000Z</time></trkpt>
			<trkpt lat="56.759263" lon="36.007005"><time>1970-01-01T00:00:01.000Z</time></trkpt>
			<trkpt lat="56.759364" lon="36.007337"><time>1970-01-01T00:00:01.000Z</time></trkpt>
			<trkpt lat="56.759317" lon="36.007812"><time>1970-01-01T00:00:01.000Z</time></trkpt>
			<trkpt lat="56.759159" lon="36.008128"><time>1970-01-01T00:00:01.000Z</time></trkpt>
			<trkpt lat="56.759071" lon="36.008421"><time>1970-01-01T00:00:01.000Z</time></trkpt>
			<trkpt lat="56.759049" lon="36.008681"><time>1970-01-01T00:00:01.000Z</time></trkpt>
			<trkpt lat="56.759080" lon="36.009170"><time>1970-01-01T00:00:01.000Z</time></trkpt>
			<trkpt lat="56.758909" lon="36.009646"><time>1970-01-01T00:00:01.000Z</time></trkpt>
			<trkpt lat="56.758863" lon="36.009900"><time>1970-01-01T00:00:01.000Z</time></trkpt>
			<trkpt lat="56.758819" lon="36.009938"><time>1970-01-01T00:00:01.000Z</time></trkpt>
			<trkpt lat="56.758755" lon="36.009957"><time>1970-01-01T00:00:01.000Z</time></trkpt>
			<trkpt lat="56.758642" lon="36.009911"><time>1970-01-01T00:00:01.000Z</time></trkpt>
			<trkpt lat="56.758278" lon="36.010103"><time>1970-01-01T00:00:01.000Z</time></trkpt>
			<trkpt lat="56.758154" lon="36.010066"><time>1970-01-01T00:00:01.000Z</time></trkpt>
			<trkpt lat="56.758083" lon="36.010183"><time>1970-01-01T00:00:01.000Z</time></trkpt>
			<trkpt lat="56.758008" lon="36.010133"><time>1970-01-01T00:00:01.000Z</time></trkpt>
			<trkpt lat="56.757867" lon="36.010009"><time>1970-01-01T00:00:01.000Z</time></trkpt>
			<trkpt lat="56.757767" lon="36.010047"><time>1970-01-01T00:00:01.000Z</time></trkpt>
			<trkpt lat="56.757649" lon="36.010029"><time>1970-01-01T00:00:01.000Z</time></trkpt>
			<trkpt lat="56.757554" lon="36.009999"><time>1970-01-01T00:00:01.000Z</time></trkpt>
			<trkpt lat="56.757475" lon="36.010053"><time>1970-01-01T00:00:01.000Z</time></trkpt>
			<trkpt lat="56.757431" lon="36.009967"><time>1970-01-01T00:00:01.000Z</time></trkpt>
			<trkpt lat="56.757379" lon="36.009942"><time>1970-01-01T00:00:01.000Z</time></trkpt>
			<trkpt lat="56.757206" lon="36.010037"><time>1970-01-01T00:00:01.000Z</time></trkpt>
			<trkpt lat="56.757173" lon="36.010145"><time>1970-01-01T00:00:01.000Z</time></trkpt>
			<trkpt lat="56.756867" lon="36.009942"><time>1970-01-01T00:00:01.000Z</time></trkpt>
			<trkpt lat="56.756839" lon="36.009996"><time>1970-01-01T00:00:01.000Z</time></trkpt>
			<trkpt lat="56.756801" lon="36.010018"><time>1970-01-01T00:00:01.000Z</time></trkpt>
			<trkpt lat="56.756706" lon="36.010140"><time>1970-01-01T00:00:01.000Z</time></trkpt>
			<trkpt lat="56.756631" lon="36.010112"><time>1970-01-01T00:00:01.000Z</time></trkpt>
			<trkpt lat="56.756611" lon="36.010023"><time>1970-01-01T00:00:01.000Z</time></trkpt>
			<trkpt lat="56.756499" lon="36.010026"><time>1970-01-01T00:00:01.000Z</time></trkpt>
			<trkpt lat="56.756433" lon="36.009950"><time>1970-01-01T00:00:01.000Z</time></trkpt>
			<trkpt lat="56.756430" lon="36.009896"><time>1970-01-01T00:00:01.000Z</time></trkpt>
			<trkpt lat="56.756397" lon="36.009886"><time>1970-01-01T00:00:01.000Z</time></trkpt>
			<trkpt lat="56.756364" lon="36.009940"><time>1970-01-01T00:00:01.000Z</time></trkpt>
			<trkpt lat="56.756332" lon="36.009940"><time>1970-01-01T00:00:01.000Z</time></trkpt>
			<trkpt lat="56.756323" lon="36.009890"><time>1970-01-01T00:00:01.000Z</time></trkpt>
			<trkpt lat="56.756209" lon="36.009943"><time>1970-01-01T00:00:01.000Z</time></trkpt>
			<trkpt lat="56.756205" lon="36.009748"><time>1970-01-01T00:00:01.000Z</time></trkpt>
			<trkpt lat="56.756157" lon="36.009674"><time>1970-01-01T00:00:01.000Z</time></trkpt>
			<trkpt lat="56.756095" lon="36.009712"><time>1970-01-01T00:00:01.000Z</time></trkpt>
			<trkpt lat="56.755944" lon="36.009609"><time>1970-01-01T00:00:01.000Z</time></trkpt>
			<trkpt lat="56.755798" lon="36.009609"><time>1970-01-01T00:00:01.000Z</time></trkpt>
			<trkpt lat="56.755799" lon="36.009741"><time>1970-01-01T00:00:01.000Z</time></trkpt>
			<trkpt lat="56.755756" lon="36.009775"><time>1970-01-01T00:00:01.000Z</time></trkpt>
			<trkpt lat="56.755683" lon="36.009680"><time>1970-01-01T00:00:01.000Z</time></trkpt>
			<trkpt lat="56.755627" lon="36.009665"><time>1970-01-01T00:00:01.000Z</time></trkpt>
			<trkpt lat="56.755564" lon="36.009738"><time>1970-01-01T00:00:01.000Z</time></trkpt>
			<trkpt lat="56.755501" lon="36.010275"><time>1970-01-01T00:00:01.000Z</time></trkpt>
			<trkpt lat="56.755568" lon="36.010350"><time>1970-01-01T00:00:01.000Z</time></trkpt>
			<trkpt lat="56.755620" lon="36.010742"><time>1970-01-01T00:00:01.000Z</time></trkpt>
			<trkpt lat="56.755483" lon="36.011012"><time>1970-01-01T00:00:01.000Z</time></trkpt>
			<trkpt lat="56.755435" lon="36.011139"><time>1970-01-01T00:00:01.000Z</time></trkpt>
			<trkpt lat="56.755455" lon="36.011281"><time>1970-01-01T00:00:01.000Z</time></trkpt>
			<trkpt lat="56.755426" lon="36.011429"><time>1970-01-01T00:00:01.000Z</time></trkpt>
			<trkpt lat="56.755403" lon="36.011410"><time>1970-01-01T00:00:01.000Z</time></trkpt>
			<trkpt lat="56.755331" lon="36.011485"><time>1970-01-01T00:00:01.000Z</time></trkpt>
			<trkpt lat="56.755271" lon="36.011470"><time>1970-01-01T00:00:01.000Z</time></trkpt>
			<trkpt lat="56.755222" lon="36.011507"><time>1970-01-01T00:00:01.000Z</time></trkpt>
			<trkpt lat="56.755145" lon="36.011703"><time>1970-01-01T00:00:01.000Z</time></trkpt>
			<trkpt lat="56.755037" lon="36.011775"><time>1970-01-01T00:00:01.000Z</time></trkpt>
			<trkpt lat="56.755002" lon="36.011942"><time>1970-01-01T00:00:01.000Z</time></trkpt>
			<trkpt lat="56.754920" lon="36.011955"><time>1970-01-01T00:00:01.000Z</time></trkpt>
			<trkpt lat="56.754861" lon="36.011981"><time>1970-01-01T00:00:01.000Z</time></trkpt>
			<trkpt lat="56.754786" lon="36.012246"><time>1970-01-01T00:00:01.000Z</time></trkpt>
			<trkpt lat="56.754723" lon="36.012284"><time>1970-01-01T00:00:01.000Z</time></trkpt>
			<trkpt lat="56.754681" lon="36.012429"><time>1970-01-01T00:00:01.000Z</time></trkpt>
			<trkpt lat="56.754682" lon="36.012864"><time>1970-01-01T00:00:01.000Z</time></trkpt>
			<trkpt lat="56.754564" lon="36.013155"><time>1970-01-01T00:00:01.000Z</time></trkpt>
			<trkpt lat="56.754561" lon="36.013361"><time>1970-01-01T00:00:01.000Z</time></trkpt>
			<trkpt lat="56.754667" lon="36.013475"><time>1970-01-01T00:00:01.000Z</time></trkpt>
			<trkpt lat="56.754741" lon="36.013513"><time>1970-01-01T00:00:01.000Z</time></trkpt>
			<trkpt lat="56.754781" lon="36.013473"><time>1970-01-01T00:00:01.000Z</time></trkpt>
			<trkpt lat="56.754803" lon="36.013501"><time>1970-01-01T00:00:01.000Z</time></trkpt>
			<trkpt lat="56.754842" lon="36.013913"><time>1970-01-01T00:00:01.000Z</time></trkpt>
			<trkpt lat="56.754882" lon="36.013967"><time>1970-01-01T00:00:01.000Z</time></trkpt>
			<trkpt lat="56.754834" lon="36.014129"><time>1970-01-01T00:00:01.000Z</time></trkpt>
			<trkpt lat="56.754860" lon="36.014066"><time>1970-01-01T00:00:01.000Z</time></trkpt>
			<trkpt lat="56.754773" lon="36.014230"><time>1970-01-01T00:00:01.000Z</time></trkpt>
			<trkpt lat="56.754867" lon="36.014306"><time>1970-01-01T00:00:01.000Z</time></trkpt>
			<trkpt lat="56.755062" lon="36.014360"><time>1970-01-01T00:00:01.000Z</time></trkpt>
			<trkpt lat="56.755159" lon="36.014377"><time>1970-01-01T00:00:01.000Z</time></trkpt>
			<trkpt lat="56.755288" lon="36.014428"><time>1970-01-01T00:00:01.000Z</time></trkpt>
			<trkpt lat="56.755410" lon="36.014764"><time>1970-01-01T00:00:01.000Z</time></trkpt>
			<trkpt lat="56.755480" lon="36.014688"><time>1970-01-01T00:00:01.000Z</time></trkpt>
			<trkpt lat="56.755530" lon="36.014742"><time>1970-01-01T00:00:01.000Z</time></trkpt>
			<trkpt lat="56.755683" lon="36.015027"><time>1970-01-01T00:00:01.000Z</time></trkpt>
			<trkpt lat="56.755761" lon="36.015484"><time>1970-01-01T00:00:01.000Z</time></trkpt>
			<trkpt lat="56.755844" lon="36.015744"><time>1970-01-01T00:00:01.000Z</time></trkpt>
			<trkpt lat="56.755838" lon="36.016110"><time>1970-01-01T00:00:01.000Z</time></trkpt>
			<trkpt lat="56.755942" lon="36.016192"><time>1970-01-01T00:00:01.000Z</time></trkpt>
			<trkpt lat="56.755905" lon="36.016211"><time>1970-01-01T00:00:01.000Z</time></trkpt>
			<trkpt lat="56.755798" lon="36.016073"><time>1970-01-01T00:00:01.000Z</time></trkpt>
			<trkpt lat="56.755747" lon="36.016094"><time>1970-01-01T00:00:01.000Z</time></trkpt>
			<trkpt lat="56.755741" lon="36.016061"><time>1970-01-01T00:00:01.000Z</time></trkpt>
			<trkpt lat="56.755611" lon="36.015981"><time>1970-01-01T00:00:01.000Z</time></trkpt>
			<trkpt lat="56.755393" lon="36.016030"><time>1970-01-01T00:00:01.000Z</time></trkpt>
			<trkpt lat="56.755314" lon="36.016142"><time>1970-01-01T00:00:01.000Z</time></trkpt>
			<trkpt lat="56.755256" lon="36.016337"><time>1970-01-01T00:00:01.000Z</time></trkpt>
			<trkpt lat="56.755249" lon="36.016478"><time>1970-01-01T00:00:01.000Z</time></trkpt>
			<trkpt lat="56.755301" lon="36.016756"><time>1970-01-01T00:00:01.000Z</time></trkpt>
			<trkpt lat="56.755531" lon="36.016990"><time>1970-01-01T00:00:01.000Z</time></trkpt>
			<trkpt lat="56.755863" lon="36.017185"><time>1970-01-01T00:00:01.000Z</time></trkpt>
			<trkpt lat="56.756038" lon="36.017227"><time>1970-01-01T00:00:01.000Z</time></trkpt>
			<trkpt lat="56.756130" lon="36.017289"><time>1970-01-01T00:00:01.000Z</time></trkpt>
			<trkpt lat="56.756383" lon="36.017654"><time>1970-01-01T00:00:01.000Z</time></trkpt>
			<trkpt lat="56.756542" lon="36.018033"><time>1970-01-01T00:00:01.000Z</time></trkpt>
			<trkpt lat="56.756605" lon="36.018753"><time>1970-01-01T00:00:01.000Z</time></trkpt>
			<trkpt lat="56.756648" lon="36.018923"><time>1970-01-01T00:00:01.000Z</time></trkpt>
			<trkpt lat="56.756835" lon="36.019129"><time>1970-01-01T00:00:01.000Z</time></trkpt>
			<trkpt lat="56.756877" lon="36.019273"><time>1970-01-01T00:00:01.000Z</time></trkpt>
			<trkpt lat="56.757034" lon="36.019369"><time>1970-01-01T00:00:01.000Z</time></trkpt>
			<trkpt lat="56.757140" lon="36.019524"><time>1970-01-01T00:00:01.000Z</time></trkpt>
			<trkpt lat="56.757178" lon="36.019591"><time>1970-01-01T00:00:01.000Z</time></trkpt>
			<trkpt lat="56.757168" lon="36.020127"><time>1970-01-01T00:00:01.000Z</time></trkpt>
			<trkpt lat="56.757054" lon="36.020788"><time>1970-01-01T00:00:01.000Z</time></trkpt>
			<trkpt lat="56.757049" lon="36.021327"><time>1970-01-01T00:00:01.000Z</time></trkpt>
			<trkpt lat="56.756921" lon="36.021787"><time>1970-01-01T00:00:01.000Z</time></trkpt>
			<trkpt lat="56.756837" lon="36.022580"><time>1970-01-01T00:00:01.000Z</time></trkpt>
			<trkpt lat="56.756752" lon="36.022937"><time>1970-01-01T00:00:01.000Z</time></trkpt>
			<trkpt lat="56.756697" lon="36.023408"><time>1970-01-01T00:00:01.000Z</time></trkpt>
			<trkpt lat="56.756711" lon="36.023622"><time>1970-01-01T00:00:01.000Z</time></trkpt>
			<trkpt lat="56.756837" lon="36.023856"><time>1970-01-01T00:00:01.000Z</time></trkpt>
			<trkpt lat="56.756847" lon="36.024076"><time>1970-01-01T00:00:01.000Z</time></trkpt>
			<trkpt lat="56.756565" lon="36.024615"><time>1970-01-01T00:00:01.000Z</time></trkpt>
			<trkpt lat="56.756534" lon="36.024774"><time>1970-01-01T00:00:01.000Z</time></trkpt>
			<trkpt lat="56.756288" lon="36.026564"><time>1970-01-01T00:00:01.000Z</time></trkpt>
			<trkpt lat="56.756205" lon="36.027515"><time>1970-01-01T00:00:01.000Z</time></trkpt>
			<trkpt lat="56.756109" lon="36.028080"><time>1970-01-01T00:00:01.000Z</time></trkpt>
			<trkpt lat="56.756075" lon="36.028654"><time>1970-01-01T00:00:01.000Z</time></trkpt>
			<trkpt lat="56.755923" lon="36.029632"><time>1970-01-01T00:00:01.000Z</time></trkpt>
			<trkpt lat="56.755845" lon="36.030457"><time>1970-01-01T00:00:01.000Z</time></trkpt>
			<trkpt lat="56.755769" lon="36.030579"><time>1970-01-01T00:00:01.000Z</time></trkpt>
			<trkpt lat="56.755733" lon="36.030866"><time>1970-01-01T00:00:01.000Z</time></trkpt>
			<trkpt lat="56.755380" lon="36.032153"><time>1970-01-01T00:00:01.000Z</time></trkpt>
			<trkpt lat="56.755321" lon="36.032462"><time>1970-01-01T00:00:01.000Z</time></trkpt>
			<trkpt lat="56.755301" lon="36.032845"><time>1970-01-01T00:00:01.000Z</time></trkpt>
			<trkpt lat="56.755012" lon="36.033920"><time>1970-01-01T00:00:01.000Z</time></trkpt>
			<trkpt lat="56.754907" lon="36.034486"><time>1970-01-01T00:00:01.000Z</time></trkpt>
			<trkpt lat="56.755076" lon="36.035317"><time>1970-01-01T00:00:01.000Z</time></trkpt>
			<trkpt lat="56.755210" lon="36.035612"><time>1970-01-01T00:00:01.000Z</time></trkpt>
			<trkpt lat="56.755187" lon="36.036103"><time>1970-01-01T00:00:01.000Z</time></trkpt>
			<trkpt lat="56.755274" lon="36.036341"><time>1970-01-01T00:00:01.000Z</time></trkpt>
			<trkpt lat="56.755398" lon="36.036886"><time>1970-01-01T00:00:01.000Z</time></trkpt>
			<trkpt lat="56.755403" lon="36.037192"><time>1970-01-01T00:00:01.000Z</time></trkpt>
			<trkpt lat="56.755332" lon="36.037782"><time>1970-01-01T00:00:01.000Z</time></trkpt>
			<trkpt lat="56.755373" lon="36.037940"><time>1970-01-01T00:00:01.000Z</time></trkpt>
			<trkpt lat="56.755502" lon="36.038071"><time>1970-01-01T00:00:01.000Z</time></trkpt>
			<trkpt lat="56.755595" lon="36.038042"><time>1970-01-01T00:00:01.000Z</time></trkpt>
			<trkpt lat="56.755676" lon="36.037710"><time>1970-01-01T00:00:01.000Z</time></trkpt>
		</trkseg>
	</trk>
</gpx>
