<?xml version="1.0" encoding="UTF-8" standalone="no" ?>
<gpx xmlns="http://www.topografix.com/GPX/1/1" creator="http://nakarte.me" xmlns:xsi="http://www.w3.org/2001/XMLSchema-instance" xsi:schemaLocation="http://www.topografix.com/GPX/1/1 http://www.topografix.com/GPX/1/1/gpx.xsd" version="1.1">
	<metadata>
		<time>2026-08-11T12:53:20.254Z</time>
	</metadata>
	<trk>
		<name>Серая Шейка — 14 км</name>
		<trkseg>
			<trkpt lat="56.755655" lon="36.037801"><time>1970-01-01T00:00:01.000Z</time></trkpt>
			<trkpt lat="56.755855" lon="36.036932"><time>1970-01-01T00:00:01.000Z</time></trkpt>
			<trkpt lat="56.755829" lon="36.036744"><time>1970-01-01T00:00:01.000Z</time></trkpt>
			<trkpt lat="56.755767" lon="36.036642"><time>1970-01-01T00:00:01.000Z</time></trkpt>
			<trkpt lat="56.755673" lon="36.036615"><time>1970-01-01T00:00:01.000Z</time></trkpt>
			<trkpt lat="56.755590" lon="36.036648"><time>1970-01-01T00:00:01.000Z</time></trkpt>
			<trkpt lat="56.755490" lon="36.036819"><time>1970-01-01T00:00:01.000Z</time></trkpt>
			<trkpt lat="56.755429" lon="36.036798"><time>1970-01-01T00:00:01.000Z</time></trkpt>
			<trkpt lat="56.755355" lon="36.036653"><time>1970-01-01T00:00:01.000Z</time></trkpt>
			<trkpt lat="56.755199" lon="36.036063"><time>1970-01-01T00:00:01.000Z</time></trkpt>
			<trkpt lat="56.755246" lon="36.035709"><time>1970-01-01T00:00:01.000Z</time></trkpt>
			<trkpt lat="56.755214" lon="36.035500"><time>1970-01-01T00:00:01.000Z</time></trkpt>
			<trkpt lat="56.755079" lon="36.035306"><time>1970-01-01T00:00:01.000Z</time></trkpt>
			<trkpt lat="56.754599" lon="36.033418"><time>1970-01-01T00:00:01.000Z</time></trkpt>
			<trkpt lat="56.754452" lon="36.033450"><time>1970-01-01T00:00:01.000Z</time></trkpt>
			<trkpt lat="56.754217" lon="36.033622"><time>1970-01-01T00:00:01.000Z</time></trkpt>
			<trkpt lat="56.753779" lon="36.034244"><time>1970-01-01T00:00:01.000Z</time></trkpt>
			<trkpt lat="56.753793" lon="36.035585"><time>1970-01-01T00:00:01.000Z</time></trkpt>
			<trkpt lat="56.753723" lon="36.036304"><time>1970-01-01T00:00:01.000Z</time></trkpt>
			<trkpt lat="56.753593" lon="36.036347"><time>1970-01-01T00:00:01.000Z</time></trkpt>
			<trkpt lat="56.753082" lon="36.035671"><time>1970-01-01T00:00:01.000Z</time></trkpt>
			<trkpt lat="56.752480" lon="36.034952"><time>1970-01-01T00:00:01.000Z</time></trkpt>
			<trkpt lat="56.752248" lon="36.034861"><time>1970-01-01T00:00:01.000Z</time></trkpt>
			<trkpt lat="56.751363" lon="36.034373"><time>1970-01-01T00:00:01.000Z</time></trkpt>
			<trkpt lat="56.751199" lon="36.034271"><time>1970-01-01T00:00:01.000Z</time></trkpt>
			<trkpt lat="56.751132" lon="36.034091"><time>1970-01-01T00:00:01.000Z</time></trkpt>
			<trkpt lat="56.750996" lon="36.034008"><time>1970-01-01T00:00:01.000Z</time></trkpt>
			<trkpt lat="56.750773" lon="36.033965"><time>1970-01-01T00:00:01.000Z</time></trkpt>
			<trkpt lat="56.750632" lon="36.033863"><time>1970-01-01T00:00:01.000Z</time></trkpt>
			<trkpt lat="56.750199" lon="36.033660"><time>1970-01-01T00:00:01.000Z</time></trkpt>
			<trkpt lat="56.749863" lon="36.033421"><time>1970-01-01T00:00:01.000Z</time></trkpt>
			<trkpt lat="56.749641" lon="36.033214"><time>1970-01-01T00:00:01.000Z</time></trkpt>
			<trkpt lat="56.749426" lon="36.033094"><time>1970-01-01T00:00:01.000Z</time></trkpt>
			<trkpt lat="56.749170" lon="36.032890"><time>1970-01-01T00:00:01.000Z</time></trkpt>
			<trkpt lat="56.749061" lon="36.032866"><time>1970-01-01T00:00:01.000Z</time></trkpt>
			<trkpt lat="56.748126" lon="36.031004"><time>1970-01-01T00:00:01.000Z</time></trkpt>
			<trkpt lat="56.748021" lon="36.031168"><time>1970-01-01T00:00:01.000Z</time></trkpt>
			<trkpt lat="56.747908" lon="36.030988"><time>1970-01-01T00:00:01.000Z</time></trkpt>
			<trkpt lat="56.746821" lon="36.030189"><time>1970-01-01T00:00:01.000Z</time></trkpt>
			<trkpt lat="56.746114" lon="36.030183"><time>1970-01-01T00:00:01.000Z</time></trkpt>
			<trkpt lat="56.746023" lon="36.030221"><time>1970-01-01T00:00:01.000Z</time></trkpt>
			<trkpt lat="56.745899" lon="36.030194"><time>1970-01-01T00:00:01.000Z</time></trkpt>
			<trkpt lat="56.745828" lon="36.030108"><time>1970-01-01T00:00:01.000Z</time></trkpt>
			<trkpt lat="56.745064" lon="36.029797"><time>1970-01-01T00:00:01.000Z</time></trkpt>
			<trkpt lat="56.744355" lon="36.029406"><time>1970-01-01T00:00:01.000Z</time></trkpt>
			<trkpt lat="56.743493" lon="36.028504"><time>1970-01-01T00:00:01.000Z</time></trkpt>
			<trkpt lat="56.742946" lon="36.028140"><time>1970-01-01T00:00:01.000Z</time></trkpt>
			<trkpt lat="56.742757" lon="36.027946"><time>1970-01-01T00:00:01.000Z</time></trkpt>
			<trkpt lat="56.742492" lon="36.027764"><time>1970-01-01T00:00:01.000Z</time></trkpt>
			<trkpt lat="56.742157" lon="36.027700"><time>1970-01-01T00:00:01.000Z</time></trkpt>
			<trkpt lat="56.741445" lon="36.027764"><time>1970-01-01T00:00:01.000Z</time></trkpt>
			<trkpt lat="56.741122" lon="36.027753"><time>1970-01-01T00:00:01.000Z</time></trkpt>
			<trkpt lat="56.740827" lon="36.027775"><time>1970-01-01T00:00:01.000Z</time></trkpt>
			<trkpt lat="56.740710" lon="36.027850"><time>1970-01-01T00:00:01.000Z</time></trkpt>
			<trkpt lat="56.740280" lon="36.027893"><time>1970-01-01T00:00:01.000Z</time></trkpt>
			<trkpt lat="56.740145" lon="36.028000"><time>1970-01-01T00:00:01.000Z</time></trkpt>
			<trkpt lat="56.740051" lon="36.028183"><time>1970-01-01T00:00:01.000Z</time></trkpt>
			<trkpt lat="56.740080" lon="36.028794"><time>1970-01-01T00:00:01.000Z</time></trkpt>
			<trkpt lat="56.739904" lon="36.028816"><time>1970-01-01T00:00:01.000Z</time></trkpt>
			<trkpt lat="56.739453" lon="36.028719"><time>1970-01-01T00:00:01.000Z</time></trkpt>
			<trkpt lat="56.739330" lon="36.028735"><time>1970-01-01T00:00:01.000Z</time></trkpt>
			<trkpt lat="56.739180" lon="36.028606"><time>1970-01-01T00:00:01.000Z</time></trkpt>
			<trkpt lat="56.737526" lon="36.028161"><time>1970-01-01T00:00:01.000Z</time></trkpt>
			<trkpt lat="56.737214" lon="36.028472"><time>1970-01-01T00:00:01.000Z</time></trkpt>
			<trkpt lat="56.737014" lon="36.028730"><time>1970-01-01T00:00:01.000Z</time></trkpt>
			<trkpt lat="56.736649" lon="36.028934"><time>1970-01-01T00:00:01.000Z</time></trkpt>
			<trkpt lat="56.736449" lon="36.028944"><time>1970-01-01T00:00:01.000Z</time></trkpt>
			<trkpt lat="56.735790" lon="36.028773"><time>1970-01-01T00:00:01.000Z</time></trkpt>
			<trkpt lat="56.734496" lon="36.028708"><time>1970-01-01T00:00:01.000Z</time></trkpt>
			<trkpt lat="56.733931" lon="36.028751"><time>1970-01-01T00:00:01.000Z</time></trkpt>
			<trkpt lat="56.733763" lon="36.028735"><time>1970-01-01T00:00:01.000Z</time></trkpt>
			<trkpt lat="56.733784" lon="36.028472"><time>1970-01-01T00:00:01.000Z</time></trkpt>
			<trkpt lat="56.733736" lon="36.028333"><time>1970-01-01T00:00:01.000Z</time></trkpt>
			<trkpt lat="56.733395" lon="36.028193"><time>1970-01-01T00:00:01.000Z</time></trkpt>
			<trkpt lat="56.733319" lon="36.028000"><time>1970-01-01T00:00:01.000Z</time></trkpt>
			<trkpt lat="56.733254" lon="36.027957"><time>1970-01-01T00:00:01.000Z</time></trkpt>
			<trkpt lat="56.733127" lon="36.027710"><time>1970-01-01T00:00:01.000Z</time></trkpt>
			<trkpt lat="56.733042" lon="36.027635"><time>1970-01-01T00:00:01.000Z</time></trkpt>
			<trkpt lat="56.732942" lon="36.027646"><time>1970-01-01T00:00:01.000Z</time></trkpt>
			<trkpt lat="56.732871" lon="36.027743"><time>1970-01-01T00:00:01.000Z</time></trkpt>
			<trkpt lat="56.732760" lon="36.027625"><time>1970-01-01T00:00:01.000Z</time></trkpt>
			<trkpt lat="56.732636" lon="36.027571"><time>1970-01-01T00:00:01.000Z</time></trkpt>
			<trkpt lat="56.732604" lon="36.027507"><time>1970-01-01T00:00:01.000Z</time></trkpt>
			<trkpt lat="56.732574" lon="36.027560"><time>1970-01-01T00:00:01.000Z</time></trkpt>
			<trkpt lat="56.732495" lon="36.027394"><time>1970-01-01T00:00:01.000Z</time></trkpt>
			<trkpt lat="56.732424" lon="36.027378"><time>1970-01-01T00:00:01.000Z</time></trkpt>
			<trkpt lat="56.732330" lon="36.027297"><time>1970-01-01T00:00:01.000Z</time></trkpt>
			<trkpt lat="56.732195" lon="36.026938"><time>1970-01-01T00:00:01.000Z</time></trkpt>
			<trkpt lat="56.732128" lon="36.026927"><time>1970-01-01T00:00:01.000Z</time></trkpt>
			<trkpt lat="56.732100" lon="36.026874"><time>1970-01-01T00:00:01.000Z</time></trkpt>
			<trkpt lat="56.732012" lon="36.026836"><time>1970-01-01T00:00:01.000Z</time></trkpt>
			<trkpt lat="56.731977" lon="36.026884"><time>1970-01-01T00:00:01.000Z</time></trkpt>
			<trkpt lat="56.731939" lon="36.026793"><time>1970-01-01T00:00:01.000Z</time></trkpt>
			<trkpt lat="56.731871" lon="36.026809"><time>1970-01-01T00:00:01.000Z</time></trkpt>
			<trkpt lat="56.731771" lon="36.026734"><time>1970-01-01T00:00:01.000Z</time></trkpt>
			<trkpt lat="56.731735" lon="36.026573"><time>1970-01-01T00:00:01.000Z</time></trkpt>
			<trkpt lat="56.731680" lon="36.026579"><time>1970-01-01T00:00:01.000Z</time></trkpt>
			<trkpt lat="56.731618" lon="36.026241"><time>1970-01-01T00:00:01.000Z</time></trkpt>
			<trkpt lat="56.731527" lon="36.026267"><time>1970-01-01T00:00:01.000Z</time></trkpt>
			<trkpt lat="56.731368" lon="36.026176"><time>1970-01-01T00:00:01.000Z</time></trkpt>
			<trkpt lat="56.731138" lon="36.026165"><time>1970-01-01T00:00:01.000Z</time></trkpt>
			<trkpt lat="56.731067" lon="36.026106"><time>1970-01-01T00:00:01.000Z</time></trkpt>
			<trkpt lat="56.730641" lon="36.018205"><time>1970-01-01T00:00:01.000Z</time></trkpt>
			<trkpt lat="56.730912" lon="36.017454"><time>1970-01-01T00:00:01.000Z</time></trkpt>
			<trkpt lat="56.731028" lon="36.017298"><time>1970-01-01T00:00:01.000Z</time></trkpt>
			<trkpt lat="56.731147" lon="36.017432"><time>1970-01-01T00:00:01.000Z</time></trkpt>
			<trkpt lat="56.731203" lon="36.017405"><time>1970-01-01T00:00:01.000Z</time></trkpt>
			<trkpt lat="56.731338" lon="36.017510"><time>1970-01-01T00:00:01.000Z</time></trkpt>
			<trkpt lat="56.731385" lon="36.017470"><time>1970-01-01T00:00:01.000Z</time></trkpt>
			<trkpt lat="56.731426" lon="36.017336"><time>1970-01-01T00:00:01.000Z</time></trkpt>
			<trkpt lat="56.731429" lon="36.017159"><time>1970-01-01T00:00:01.000Z</time></trkpt>
			<trkpt lat="56.731497" lon="36.017105"><time>1970-01-01T00:00:01.000Z</time></trkpt>
			<trkpt lat="56.731562" lon="36.017196"><time>1970-01-01T00:00:01.000Z</time></trkpt>
			<trkpt lat="56.731706" lon="36.017228"><time>1970-01-01T00:00:01.000Z</time></trkpt>
			<trkpt lat="56.731774" lon="36.017084"><time>1970-01-01T00:00:01.000Z</time></trkpt>
			<trkpt lat="56.731794" lon="36.016928"><time>1970-01-01T00:00:01.000Z</time></trkpt>
			<trkpt lat="56.731853" lon="36.016966"><time>1970-01-01T00:00:01.000Z</time></trkpt>
			<trkpt lat="56.732044" lon="36.016794"><time>1970-01-01T00:00:01.000Z</time></trkpt>
			<trkpt lat="56.732259" lon="36.016746"><time>1970-01-01T00:00:01.000Z</time></trkpt>
			<trkpt lat="56.732277" lon="36.016810"><time>1970-01-01T00:00:01.000Z</time></trkpt>
			<trkpt lat="56.732386" lon="36.016794"><time>1970-01-01T00:00:01.000Z</time></trkpt>
			<trkpt lat="56.732573" lon="36.016909"><time>1970-01-01T00:00:01.000Z</time></trkpt>
			<trkpt lat="56.733104" lon="36.016877"><time>1970-01-01T00:00:01.000Z</time></trkpt>
			<trkpt lat="56.733636" lon="36.016729"><time>1970-01-01T00:00:01.000Z</time></trkpt>
			<trkpt lat="56.733931" lon="36.016483"><time>1970-01-01T00:00:01.000Z</time></trkpt>
			<trkpt lat="56.734013" lon="36.016456"><time>1970-01-01T00:00:01.000Z</time></trkpt>
			<trkpt lat="56.734072" lon="36.016354"><time>1970-01-01T00:00:01.000Z</time></trkpt>
			<trkpt lat="56.734157" lon="36.016333"><time>1970-01-01T00:00:01.000Z</time></trkpt>
			<trkpt lat="56.734228" lon="36.016241"><time>1970-01-01T00:00:01.000Z</time></trkpt>
			<trkpt lat="56.734203" lon="36.016000"><time>1970-01-01T00:00:01.000Z</time></trkpt>
			<trkpt lat="56.734231" lon="36.015571"><time>1970-01-01T00:00:01.000Z</time></trkpt>
			<trkpt lat="56.734319" lon="36.015227"><time>1970-01-01T00:00:01.000Z</time></trkpt>
			<trkpt lat="56.734312" lon="36.015131"><time>1970-01-01T00:00:01.000Z</time></trkpt>
			<trkpt lat="56.734343" lon="36.014900"><time>1970-01-01T00:00:01.000Z</time></trkpt>
			<trkpt lat="56.734263" lon="36.014659"><time>1970-01-01T00:00:01.000Z</time></trkpt>
			<trkpt lat="56.734187" lon="36.014600"><time>1970-01-01T00:00:01.000Z</time></trkpt>
			<trkpt lat="56.734093" lon="36.014428"><time>1970-01-01T00:00:01.000Z</time></trkpt>
			<trkpt lat="56.734060" lon="36.014380"><time>1970-01-01T00:00:01.000Z</time></trkpt>
			<trkpt lat="56.734042" lon="36.014256"><time>1970-01-01T00:00:01.000Z</time></trkpt>
			<trkpt lat="56.734087" lon="36.014176"><time>1970-01-01T00:00:01.000Z</time></trkpt>
			<trkpt lat="56.734437" lon="36.013731"><time>1970-01-01T00:00:01.000Z</time></trkpt>
			<trkpt lat="56.735011" lon="36.010995"><time>1970-01-01T00:00:01.000Z</time></trkpt>
			<trkpt lat="56.735637" lon="36.007293"><time>1970-01-01T00:00:01.000Z</time></trkpt>
			<trkpt lat="56.735979" lon="36.004879"><time>1970-01-01T00:00:01.000Z</time></trkpt>
			<trkpt lat="56.736373" lon="36.002723"><time>1970-01-01T00:00:01.000Z</time></trkpt>
			<trkpt lat="56.738803" lon="35.998635"><time>1970-01-01T00:00:01.000Z</time></trkpt>
			<trkpt lat="56.741686" lon="35.993882"><time>1970-01-01T00:00:01.000Z</time></trkpt>
			<trkpt lat="56.742039" lon="35.993174"><time>1970-01-01T00:00:01.000Z</time></trkpt>
			<trkpt lat="56.743257" lon="35.991147"><time>1970-01-01T00:00:01.000Z</time></trkpt>
			<trkpt lat="56.743169" lon="35.990911"><time>1970-01-01T00:00:01.000Z</time></trkpt>
			<trkpt lat="56.743210" lon="35.990674"><time>1970-01-01T00:00:01.000Z</time></trkpt>
			<trkpt lat="56.743151" lon="35.990084"><time>1970-01-01T00:00:01.000Z</time></trkpt>
			<trkpt lat="56.743163" lon="35.989795"><time>1970-01-01T00:00:01.000Z</time></trkpt>
			<trkpt lat="56.743543" lon="35.989087"><time>1970-01-01T00:00:01.000Z</time></trkpt>
			<trkpt lat="56.743519" lon="35.988829"><time>1970-01-01T00:00:01.000Z</time></trkpt>
			<trkpt lat="56.743678" lon="35.988142"><time>1970-01-01T00:00:01.000Z</time></trkpt>
			<trkpt lat="56.743802" lon="35.987778"><time>1970-01-01T00:00:01.000Z</time></trkpt>
			<trkpt lat="56.743813" lon="35.987531"><time>1970-01-01T00:00:01.000Z</time></trkpt>
			<trkpt lat="56.743772" lon="35.987456"><time>1970-01-01T00:00:01.000Z</time></trkpt>
			<trkpt lat="56.743855" lon="35.987177"><time>1970-01-01T00:00:01.000Z</time></trkpt>
			<trkpt lat="56.743813" lon="35.986136"><time>1970-01-01T00:00:01.000Z</time></trkpt>
			<trkpt lat="56.743831" lon="35.985836"><time>1970-01-01T00:00:01.000Z</time></trkpt>
			<trkpt lat="56.743913" lon="35.985707"><time>1970-01-01T00:00:01.000Z</time></trkpt>
			<trkpt lat="56.743866" lon="35.985568"><time>1970-01-01T00:00:01.000Z</time></trkpt>
			<trkpt lat="56.743925" lon="35.984902"><time>1970-01-01T00:00:01.000Z</time></trkpt>
			<trkpt lat="56.743890" lon="35.984827"><time>1970-01-01T00:00:01.000Z</time></trkpt>
			<trkpt lat="56.743972" lon="35.984087"><time>1970-01-01T00:00:01.000Z</time></trkpt>
			<trkpt lat="56.744049" lon="35.984087"><time>1970-01-01T00:00:01.000Z</time></trkpt>
			<trkpt lat="56.744072" lon="35.983969"><time>1970-01-01T00:00:01.000Z</time></trkpt>
			<trkpt lat="56.744184" lon="35.983969"><time>1970-01-01T00:00:01.000Z</time></trkpt>
			<trkpt lat="56.744208" lon="35.984044"><time>1970-01-01T00:00:01.000Z</time></trkpt>
			<trkpt lat="56.744296" lon="35.983894"><time>1970-01-01T00:00:01.000Z</time></trkpt>
			<trkpt lat="56.744384" lon="35.983840"><time>1970-01-01T00:00:01.000Z</time></trkpt>
			<trkpt lat="56.744443" lon="35.983626"><time>1970-01-01T00:00:01.000Z</time></trkpt>
			<trkpt lat="56.744575" lon="35.983518"><time>1970-01-01T00:00:01.000Z</time></trkpt>
			<trkpt lat="56.744611" lon="35.983422"><time>1970-01-01T00:00:01.000Z</time></trkpt>
			<trkpt lat="56.744675" lon="35.983475"><time>1970-01-01T00:00:01.000Z</time></trkpt>
			<trkpt lat="56.744775" lon="35.983465"><time>1970-01-01T00:00:01.000Z</time></trkpt>
			<trkpt lat="56.744834" lon="35.983368"><time>1970-01-01T00:00:01.000Z</time></trkpt>
			<trkpt lat="56.744899" lon="35.983390"><time>1970-01-01T00:00:01.000Z</time></trkpt>
			<trkpt lat="56.744969" lon="35.983304"><time>1970-01-01T00:00:01.000Z</time></trkpt>
			<trkpt lat="56.745058" lon="35.983293"><time>1970-01-01T00:00:01.000Z</time></trkpt>
			<trkpt lat="56.745128" lon="35.983218"><time>1970-01-01T00:00:01.000Z</time></trkpt>
			<trkpt lat="56.745146" lon="35.982982"><time>1970-01-01T00:00:01.000Z</time></trkpt>
			<trkpt lat="56.745087" lon="35.982821"><time>1970-01-01T00:00:01.000Z</time></trkpt>
			<trkpt lat="56.745128" lon="35.982692"><time>1970-01-01T00:00:01.000Z</time></trkpt>
			<trkpt lat="56.745034" lon="35.982381"><time>1970-01-01T00:00:01.000Z</time></trkpt>
			<trkpt lat="56.745052" lon="35.982167"><time>1970-01-01T00:00:01.000Z</time></trkpt>
			<trkpt lat="56.745328" lon="35.981984"><time>1970-01-01T00:00:01.000Z</time></trkpt>
			<trkpt lat="56.745393" lon="35.981855"><time>1970-01-01T00:00:01.000Z</time></trkpt>
			<trkpt lat="56.745722" lon="35.981780"><time>1970-01-01T00:00:01.000Z</time></trkpt>
			<trkpt lat="56.745840" lon="35.981512"><time>1970-01-01T00:00:01.000Z</time></trkpt>
			<trkpt lat="56.745893" lon="35.981555"><time>1970-01-01T00:00:01.000Z</time></trkpt>
			<trkpt lat="56.745952" lon="35.981448"><time>1970-01-01T00:00:01.000Z</time></trkpt>
			<trkpt lat="56.746087" lon="35.981383"><time>1970-01-01T00:00:01.000Z</time></trkpt>
			<trkpt lat="56.746105" lon="35.981126"><time>1970-01-01T00:00:01.000Z</time></trkpt>
			<trkpt lat="56.746193" lon="35.981169"><time>1970-01-01T00:00:01.000Z</time></trkpt>
			<trkpt lat="56.746246" lon="35.981083"><time>1970-01-01T00:00:01.000Z</time></trkpt>
			<trkpt lat="56.746299" lon="35.981104"><time>1970-01-01T00:00:01.000Z</time></trkpt>
			<trkpt lat="56.746399" lon="35.980954"><time>1970-01-01T00:00:01.000Z</time></trkpt>
			<trkpt lat="56.746434" lon="35.980536"><time>1970-01-01T00:00:01.000Z</time></trkpt>
			<trkpt lat="56.746399" lon="35.980214"><time>1970-01-01T00:00:01.000Z</time></trkpt>
			<trkpt lat="56.746281" lon="35.980064"><time>1970-01-01T00:00:01.000Z</time></trkpt>
			<trkpt lat="56.746258" lon="35.979903"><time>1970-01-01T00:00:01.000Z</time></trkpt>
			<trkpt lat="56.746293" lon="35.979742"><time>1970-01-01T00:00:01.000Z</time></trkpt>
			<trkpt lat="56.746428" lon="35.979635"><time>1970-01-01T00:00:01.000Z</time></trkpt>
			<trkpt lat="56.746452" lon="35.979527"><time>1970-01-01T00:00:01.000Z</time></trkpt>
			<trkpt lat="56.746346" lon="35.979474"><time>1970-01-01T00:00:01.000Z</time></trkpt>
			<trkpt lat="56.746093" lon="35.979002"><time>1970-01-01T00:00:01.000Z</time></trkpt>
			<trkpt lat="56.745899" lon="35.978401"><time>1970-01-01T00:00:01.000Z</time></trkpt>
			<trkpt lat="56.745887" lon="35.977929"><time>1970-01-01T00:00:01.000Z</time></trkpt>
			<trkpt lat="56.745646" lon="35.977006"><time>1970-01-01T00:00:01.000Z</time></trkpt>
			<trkpt lat="56.745652" lon="35.976834"><time>1970-01-01T00:00:01.000Z</time></trkpt>
			<trkpt lat="56.745817" lon="35.976502"><time>1970-01-01T00:00:01.000Z</time></trkpt>
			<trkpt lat="56.745864" lon="35.976233"><time>1970-01-01T00:00:01.000Z</time></trkpt>
			<trkpt lat="56.745846" lon="35.975976"><time>1970-01-01T00:00:01.000Z</time></trkpt>
			<trkpt lat="56.745722" lon="35.975590"><time>1970-01-01T00:00:01.000Z</time></trkpt>
			<trkpt lat="56.745587" lon="35.974313"><time>1970-01-01T00:00:01.000Z</time></trkpt>
			<trkpt lat="56.745581" lon="35.973219"><time>1970-01-01T00:00:01.000Z</time></trkpt>
			<trkpt lat="56.745646" lon="35.972725"><time>1970-01-01T00:00:01.000Z</time></trkpt>
			<trkpt lat="56.745687" lon="35.970107"><time>1970-01-01T00:00:01.000Z</time></trkpt>
			<trkpt lat="56.745734" lon="35.970268"><time>1970-01-01T00:00:01.000Z</time></trkpt>
			<trkpt lat="56.746040" lon="35.969979"><time>1970-01-01T00:00:01.000Z</time></trkpt>
			<trkpt lat="56.746405" lon="35.970054"><time>1970-01-01T00:00:01.000Z</time></trkpt>
			<trkpt lat="56.746399" lon="35.970322"><time>1970-01-01T00:00:01.000Z</time></trkpt>
			<trkpt lat="56.746323" lon="35.970472"><time>1970-01-01T00:00:01.000Z</time></trkpt>
			<trkpt lat="56.746534" lon="35.971845"><time>1970-01-01T00:00:01.000Z</time></trkpt>
			<trkpt lat="56.746634" lon="35.972242"><time>1970-01-01T00:00:01.000Z</time></trkpt>
			<trkpt lat="56.746652" lon="35.972618"><time>1970-01-01T00:00:01.000Z</time></trkpt>
			<trkpt lat="56.746911" lon="35.973959"><time>1970-01-01T00:00:01.000Z</time></trkpt>
			<trkpt lat="56.746929" lon="35.974517"><time>1970-01-01T00:00:01.000Z</time></trkpt>
			<trkpt lat="56.746976" lon="35.974710"><time>1970-01-01T00:00:01.000Z</time></trkpt>
			<trkpt lat="56.747355" lon="35.974742"><time>1970-01-01T00:00:01.000Z</time></trkpt>
			<trkpt lat="56.747935" lon="35.974855"><time>1970-01-01T00:00:01.000Z</time></trkpt>
			<trkpt lat="56.748699" lon="35.975064"><time>1970-01-01T00:00:01.000Z</time></trkpt>
			<trkpt lat="56.748735" lon="35.975364"><time>1970-01-01T00:00:01.000Z</time></trkpt>
			<trkpt lat="56.748693" lon="35.975633"><time>1970-01-01T00:00:01.000Z</time></trkpt>
			<trkpt lat="56.748788" lon="35.976040"><time>1970-01-01T00:00:01.000Z</time></trkpt>
			<trkpt lat="56.748985" lon="35.976502"><time>1970-01-01T00:00:01.000Z</time></trkpt>
			<trkpt lat="56.749258" lon="35.977435"><time>1970-01-01T00:00:01.000Z</time></trkpt>
			<trkpt lat="56.748882" lon="35.979259"><time>1970-01-01T00:00:01.000Z</time></trkpt>
			<trkpt lat="56.748661" lon="35.979930"><time>1970-01-01T00:00:01.000Z</time></trkpt>
			<trkpt lat="56.748635" lon="35.981501"><time>1970-01-01T00:00:01.000Z</time></trkpt>
			<trkpt lat="56.748670" lon="35.981984"><time>1970-01-01T00:00:01.000Z</time></trkpt>
			<trkpt lat="56.748611" lon="35.982853"><time>1970-01-01T00:00:01.000Z</time></trkpt>
			<trkpt lat="56.748523" lon="35.983207"><time>1970-01-01T00:00:01.000Z</time></trkpt>
			<trkpt lat="56.748540" lon="35.983626"><time>1970-01-01T00:00:01.000Z</time></trkpt>
			<trkpt lat="56.747764" lon="35.985836"><time>1970-01-01T00:00:01.000Z</time></trkpt>
			<trkpt lat="56.748576" lon="35.986158"><time>1970-01-01T00:00:01.000Z</time></trkpt>
			<trkpt lat="56.749499" lon="35.986372"><time>1970-01-01T00:00:01.000Z</time></trkpt>
			<trkpt lat="56.750193" lon="35.986415"><time>1970-01-01T00:00:01.000Z</time></trkpt>
			<trkpt lat="56.750541" lon="35.986962"><time>1970-01-01T00:00:01.000Z</time></trkpt>
			<trkpt lat="56.751370" lon="35.988132"><time>1970-01-01T00:00:01.000Z</time></trkpt>
			<trkpt lat="56.751676" lon="35.988282"><time>1970-01-01T00:00:01.000Z</time></trkpt>
			<trkpt lat="56.752293" lon="35.988169"><time>1970-01-01T00:00:01.000Z</time></trkpt>
			<trkpt lat="56.752993" lon="35.988287"><time>1970-01-01T00:00:01.000Z</time></trkpt>
			<trkpt lat="56.753170" lon="35.988126"><time>1970-01-01T00:00:01.000Z</time></trkpt>
			<trkpt lat="56.753711" lon="35.987960"><time>1970-01-01T00:00:01.000Z</time></trkpt>
			<trkpt lat="56.754240" lon="35.987992"><time>1970-01-01T00:00:01.000Z</time></trkpt>
			<trkpt lat="56.754417" lon="35.988250"><time>1970-01-01T00:00:01.000Z</time></trkpt>
			<trkpt lat="56.754546" lon="35.988625"><time>1970-01-01T00:00:01.000Z</time></trkpt>
			<trkpt lat="56.754617" lon="35.988958"><time>1970-01-01T00:00:01.000Z</time></trkpt>
			<trkpt lat="56.754929" lon="35.989108"><time>1970-01-01T00:00:01.000Z</time></trkpt>
			<trkpt lat="56.755158" lon="35.989140"><time>1970-01-01T00:00:01.000Z</time></trkpt>
			<trkpt lat="56.755223" lon="35.989323"><time>1970-01-01T00:00:01.000Z</time></trkpt>
			<trkpt lat="56.755152" lon="35.989462"><time>1970-01-01T00:00:01.000Z</time></trkpt>
			<trkpt lat="56.755099" lon="35.990417"><time>1970-01-01T00:00:01.000Z</time></trkpt>
			<trkpt lat="56.755176" lon="35.990524"><time>1970-01-01T00:00:01.000Z</time></trkpt>
			<trkpt lat="56.755334" lon="35.990514"><time>1970-01-01T00:00:01.000Z</time></trkpt>
			<trkpt lat="56.755381" lon="35.990685"><time>1970-01-01T00:00:01.000Z</time></trkpt>
			<trkpt lat="56.755264" lon="35.990964"><time>1970-01-01T00:00:01.000Z</time></trkpt>
			<trkpt lat="56.755108" lon="35.991195"><time>1970-01-01T00:00:01.000Z</time></trkpt>
			<trkpt lat="56.755064" lon="35.992380"><time>1970-01-01T00:00:01.000Z</time></trkpt>
			<trkpt lat="56.754940" lon="35.993078"><time>1970-01-01T00:00:01.000Z</time></trkpt>
			<trkpt lat="56.754770" lon="35.993249"><time>1970-01-01T00:00:01.000Z</time></trkpt>
			<trkpt lat="56.754729" lon="35.993346"><time>1970-01-01T00:00:01.000Z</time></trkpt>
			<trkpt lat="56.754623" lon="35.993947"><time>1970-01-01T00:00:01.000Z</time></trkpt>
			<trkpt lat="56.754617" lon="35.994161"><time>1970-01-01T00:00:01.000Z</time></trkpt>
			<trkpt lat="56.754805" lon="35.995299"><time>1970-01-01T00:00:01.000Z</time></trkpt>
			<trkpt lat="56.754955" lon="35.995647"><time>1970-01-01T00:00:01.000Z</time></trkpt>
			<trkpt lat="56.755005" lon="35.995996"><time>1970-01-01T00:00:01.000Z</time></trkpt>
			<trkpt lat="56.754982" lon="35.996200"><time>1970-01-01T00:00:01.000Z</time></trkpt>
			<trkpt lat="56.754793" lon="35.996307"><time>1970-01-01T00:00:01.000Z</time></trkpt>
			<trkpt lat="56.754652" lon="35.996323"><time>1970-01-01T00:00:01.000Z</time></trkpt>
			<trkpt lat="56.754564" lon="35.996420"><time>1970-01-01T00:00:01.000Z</time></trkpt>
			<trkpt lat="56.754505" lon="35.996591"><time>1970-01-01T00:00:01.000Z</time></trkpt>
			<trkpt lat="56.754476" lon="35.997965"><time>1970-01-01T00:00:01.000Z</time></trkpt>
			<trkpt lat="56.754393" lon="35.998448"><time>1970-01-01T00:00:01.000Z</time></trkpt>
			<trkpt lat="56.754176" lon="35.998641"><time>1970-01-01T00:00:01.000Z</time></trkpt>
			<trkpt lat="56.754087" lon="35.998780"><time>1970-01-01T00:00:01.000Z</time></trkpt>
			<trkpt lat="56.753882" lon="35.998989"><time>1970-01-01T00:00:01.000Z</time></trkpt>
			<trkpt lat="56.753623" lon="35.998952"><time>1970-01-01T00:00:01.000Z</time></trkpt>
			<trkpt lat="56.753364" lon="35.999081"><time>1970-01-01T00:00:01.000Z</time></trkpt>
			<trkpt lat="56.753317" lon="35.999145"><time>1970-01-01T00:00:01.000Z</time></trkpt>
			<trkpt lat="56.753129" lon="35.999172"><time>1970-01-01T00:00:01.000Z</time></trkpt>
			<trkpt lat="56.752758" lon="35.999590"><time>1970-01-01T00:00:01.000Z</time></trkpt>
			<trkpt lat="56.752632" lon="35.999676"><time>1970-01-01T00:00:01.000Z</time></trkpt>
			<trkpt lat="56.752555" lon="35.999687"><time>1970-01-01T00:00:01.000Z</time></trkpt>
			<trkpt lat="56.752473" lon="36.000127"><time>1970-01-01T00:00:01.000Z</time></trkpt>
			<trkpt lat="56.752020" lon="36.000448"><time>1970-01-01T00:00:01.000Z</time></trkpt>
			<trkpt lat="56.751273" lon="36.000706"><time>1970-01-01T00:00:01.000Z</time></trkpt>
			<trkpt lat="56.750335" lon="36.001339"><time>1970-01-01T00:00:01.000Z</time></trkpt>
			<trkpt lat="56.750617" lon="36.004472"><time>1970-01-01T00:00:01.000Z</time></trkpt>
			<trkpt lat="56.751041" lon="36.008334"><time>1970-01-01T00:00:01.000Z</time></trkpt>
			<trkpt lat="56.750935" lon="36.008409"><time>1970-01-01T00:00:01.000Z</time></trkpt>
			<trkpt lat="56.750985" lon="36.008731"><time>1970-01-01T00:00:01.000Z</time></trkpt>
			<trkpt lat="56.750976" lon="36.009117"><time>1970-01-01T00:00:01.000Z</time></trkpt>
			<trkpt lat="56.751011" lon="36.009133"><time>1970-01-01T00:00:01.000Z</time></trkpt>
			<trkpt lat="56.751052" lon="36.009949"><time>1970-01-01T00:00:01.000Z</time></trkpt>
			<trkpt lat="56.751076" lon="36.010121"><time>1970-01-01T00:00:01.000Z</time></trkpt>
			<trkpt lat="56.751117" lon="36.010163"><time>1970-01-01T00:00:01.000Z</time></trkpt>
			<trkpt lat="56.751114" lon="36.010298"><time>1970-01-01T00:00:01.000Z</time></trkpt>
			<trkpt lat="56.751163" lon="36.010383"><time>1970-01-01T00:00:01.000Z</time></trkpt>
			<trkpt lat="56.751158" lon="36.010893"><time>1970-01-01T00:00:01.000Z</time></trkpt>
			<trkpt lat="56.751170" lon="36.011108"><time>1970-01-01T00:00:01.000Z</time></trkpt>
			<trkpt lat="56.751202" lon="36.011156"><time>1970-01-01T00:00:01.000Z</time></trkpt>
			<trkpt lat="56.751138" lon="36.011531"><time>1970-01-01T00:00:01.000Z</time></trkpt>
			<trkpt lat="56.751179" lon="36.011708"><time>1970-01-01T00:00:01.000Z</time></trkpt>
			<trkpt lat="56.751426" lon="36.011698"><time>1970-01-01T00:00:01.000Z</time></trkpt>
			<trkpt lat="56.751523" lon="36.011633"><time>1970-01-01T00:00:01.000Z</time></trkpt>
			<trkpt lat="56.751614" lon="36.011644"><time>1970-01-01T00:00:01.000Z</time></trkpt>
			<trkpt lat="56.751691" lon="36.011574"><time>1970-01-01T00:00:01.000Z</time></trkpt>
			<trkpt lat="56.751838" lon="36.011553"><time>1970-01-01T00:00:01.000Z</time></trkpt>
			<trkpt lat="56.752005" lon="36.011649"><time>1970-01-01T00:00:01.000Z</time></trkpt>
			<trkpt lat="56.752191" lon="36.011633"><time>1970-01-01T00:00:01.000Z</time></trkpt>
			<trkpt lat="56.752282" lon="36.011727"><time>1970-01-01T00:00:01.000Z</time></trkpt>
			<trkpt lat="56.752338" lon="36.011687"><time>1970-01-01T00:00:01.000Z</time></trkpt>
			<trkpt lat="56.752599" lon="36.011724"><time>1970-01-01T00:00:01.000Z</time></trkpt>
			<trkpt lat="56.752791" lon="36.012325"><time>1970-01-01T00:00:01.000Z</time></trkpt>
			<trkpt lat="56.752988" lon="36.012669"><time>1970-01-01T00:00:01.000Z</time></trkpt>
			<trkpt lat="56.753173" lon="36.013146"><time>1970-01-01T00:00:01.000Z</time></trkpt>
			<trkpt lat="56.753223" lon="36.013194"><time>1970-01-01T00:00:01.000Z</time></trkpt>
			<trkpt lat="56.753317" lon="36.013108"><time>1970-01-01T00:00:01.000Z</time></trkpt>
			<trkpt lat="56.753446" lon="36.013095"><time>1970-01-01T00:00:01.000Z</time></trkpt>
			<trkpt lat="56.753523" lon="36.013017"><time>1970-01-01T00:00:01.000Z</time></trkpt>
			<trkpt lat="56.753608" lon="36.013178"><time>1970-01-01T00:00:01.000Z</time></trkpt>
			<trkpt lat="56.753702" lon="36.013178"><time>1970-01-01T00:00:01.000Z</time></trkpt>
			<trkpt lat="56.753808" lon="36.013366"><time>1970-01-01T00:00:01.000Z</time></trkpt>
			<trkpt lat="56.754015" lon="36.013497"><time>1970-01-01T00:00:01.000Z</time></trkpt>
			<trkpt lat="56.754257" lon="36.013326"><time>1970-01-01T00:00:01.000Z</time></trkpt>
			<trkpt lat="56.754429" lon="36.013374"><time>1970-01-01T00:00:01.000Z</time></trkpt>
			<trkpt lat="56.754527" lon="36.013492"><time>1970-01-01T00:00:01.000Z</time></trkpt>
			<trkpt lat="56.754573" lon="36.013393"><time>1970-01-01T00:00:01.000Z</time></trkpt>
			<trkpt lat="56.754726" lon="36.013516"><time>1970-01-01T00:00:01.000Z</time></trkpt>
			<trkpt lat="56.754804" lon="36.013446"><time>1970-01-01T00:00:01.000Z</time></trkpt>
			<trkpt lat="56.754836" lon="36.013881"><time>1970-01-01T00:00:01.000Z</time></trkpt>
			<trkpt lat="56.754882" lon="36.013967"><time>1970-01-01T00:00:01.000Z</time></trkpt>
			<trkpt lat="56.754846" lon="36.014090"><time>1970-01-01T00:00:01.000Z</time></trkpt>
			<trkpt lat="56.754767" lon="36.014230"><time>1970-01-01T00:00:01.000Z</time></trkpt>
			<trkpt lat="56.754870" lon="36.014310"><time>1970-01-01T00:00:01.000Z</time></trkpt>
			<trkpt lat="56.755270" lon="36.014428"><time>1970-01-01T00:00:01.000Z</time></trkpt>
			<trkpt lat="56.755302" lon="36.014417"><time>1970-01-01T00:00:01.000Z</time></trkpt>
			<trkpt lat="56.755320" lon="36.014514"><time>1970-01-01T00:00:01.000Z</time></trkpt>
			<trkpt lat="56.755420" lon="36.014755"><time>1970-01-01T00:00:01.000Z</time></trkpt>
			<trkpt lat="56.755481" lon="36.014707"><time>1970-01-01T00:00:01.000Z</time></trkpt>
			<trkpt lat="56.755564" lon="36.014782"><time>1970-01-01T00:00:01.000Z</time></trkpt>
			<trkpt lat="56.755687" lon="36.015007"><time>1970-01-01T00:00:01.000Z</time></trkpt>
			<trkpt lat="56.755687" lon="36.015168"><time>1970-01-01T00:00:01.000Z</time></trkpt>
			<trkpt lat="56.755620" lon="36.015759"><time>1970-01-01T00:00:01.000Z</time></trkpt>
			<trkpt lat="56.755584" lon="36.015962"><time>1970-01-01T00:00:01.000Z</time></trkpt>
			<trkpt lat="56.755546" lon="36.016027"><time>1970-01-01T00:00:01.000Z</time></trkpt>
			<trkpt lat="56.755379" lon="36.016091"><time>1970-01-01T00:00:01.000Z</time></trkpt>
			<trkpt lat="56.755299" lon="36.016467"><time>1970-01-01T00:00:01.000Z</time></trkpt>
			<trkpt lat="56.755358" lon="36.016831"><time>1970-01-01T00:00:01.000Z</time></trkpt>
			<trkpt lat="56.755734" lon="36.017132"><time>1970-01-01T00:00:01.000Z</time></trkpt>
			<trkpt lat="56.756217" lon="36.017357"><time>1970-01-01T00:00:01.000Z</time></trkpt>
			<trkpt lat="56.756523" lon="36.017926"><time>1970-01-01T00:00:01.000Z</time></trkpt>
			<trkpt lat="56.756620" lon="36.018848"><time>1970-01-01T00:00:01.000Z</time></trkpt>
			<trkpt lat="56.757128" lon="36.019551"><time>1970-01-01T00:00:01.000Z</time></trkpt>
			<trkpt lat="56.757111" lon="36.020801"><time>1970-01-01T00:00:01.000Z</time></trkpt>
			<trkpt lat="56.756762" lon="36.023116"><time>1970-01-01T00:00:01.000Z</time></trkpt>
			<trkpt lat="56.756783" lon="36.023561"><time>1970-01-01T00:00:01.000Z</time></trkpt>
			<trkpt lat="56.756842" lon="36.023910"><time>1970-01-01T00:00:01.000Z</time></trkpt>
			<trkpt lat="56.756481" lon="36.025329"><time>1970-01-01T00:00:01.000Z</time></trkpt>
			<trkpt lat="56.756228" lon="36.027136"><time>1970-01-01T00:00:01.000Z</time></trkpt>
			<trkpt lat="56.755831" lon="36.030546"><time>1970-01-01T00:00:01.000Z</time></trkpt>
			<trkpt lat="56.755358" lon="36.032512"><time>1970-01-01T00:00:01.000Z</time></trkpt>
			<trkpt lat="56.755255" lon="36.033145"><time>1970-01-01T00:00:01.000Z</time></trkpt>
			<trkpt lat="56.754899" lon="36.034534"><time>1970-01-01T00:00:01.000Z</time></trkpt>
			<trkpt lat="56.755082" lon="36.035387"><time>1970-01-01T00:00:01.000Z</time></trkpt>
			<trkpt lat="56.755199" lon="36.035591"><time>1970-01-01T00:00:01.000Z</time></trkpt>
			<trkpt lat="56.755220" lon="36.035768"><time>1970-01-01T00:00:01.000Z</time></trkpt>
			<trkpt lat="56.755196" lon="36.035956"><time>1970-01-01T00:00:01.000Z</time></trkpt>
			<trkpt lat="56.755258" lon="36.036412"><time>1970-01-01T00:00:01.000Z</time></trkpt>
			<trkpt lat="56.755392" lon="36.037015"><time>1970-01-01T00:00:01.000Z</time></trkpt>
			<trkpt lat="56.755406" lon="36.037267"><time>1970-01-01T00:00:01.000Z</time></trkpt>
			<trkpt lat="56.755320" lon="36.037779"><time>1970-01-01T00:00:01.000Z</time></trkpt>
			<trkpt lat="56.755387" lon="36.037962"><time>1970-01-01T00:00:01.000Z</time></trkpt>
			<trkpt lat="56.755505" lon="36.038069"><time>1970-01-01T00:00:01.000Z</time></trkpt>
			<trkpt lat="56.755579" lon="36.038037"><time>1970-01-01T00:00:01.000Z</time></trkpt>
			<trkpt lat="56.755637" lon="36.037892"><time>1970-01-01T00:00:01.000Z</time></trkpt>
		</trkseg>
	</trk>
</gpx>