<?xml version="1.0" encoding="UTF-8" standalone="no" ?>
<gpx xmlns="http://www.topografix.com/GPX/1/1" creator="http://nakarte.me" xmlns:xsi="http://www.w3.org/2001/XMLSchema-instance" xsi:schemaLocation="http://www.topografix.com/GPX/1/1 http://www.topografix.com/GPX/1/1/gpx.xsd" version="1.1">
	<metadata>
		<time>2026-08-13T19:35:32.671Z</time>
	</metadata>
	<trk>
		<name>New track</name>
		<trkseg>
			<trkpt lat="56.755759" lon="36.037407"><time>1970-01-01T00:00:01.000Z</time></trkpt>
			<trkpt lat="56.755840" lon="36.036999"><time>1970-01-01T00:00:01.000Z</time></trkpt>
			<trkpt lat="56.755799" lon="36.036776"><time>1970-01-01T00:00:01.000Z</time></trkpt>
			<trkpt lat="56.755734" lon="36.036709"><time>1970-01-01T00:00:01.000Z</time></trkpt>
			<trkpt lat="56.755652" lon="36.036693"><time>1970-01-01T00:00:01.000Z</time></trkpt>
			<trkpt lat="56.755552" lon="36.036760"><time>1970-01-01T00:00:01.000Z</time></trkpt>
			<trkpt lat="56.755490" lon="36.036846"><time>1970-01-01T00:00:01.000Z</time></trkpt>
			<trkpt lat="56.755442" lon="36.036814"><time>1970-01-01T00:00:01.000Z</time></trkpt>
			<trkpt lat="56.755373" lon="36.036674"><time>1970-01-01T00:00:01.000Z</time></trkpt>
			<trkpt lat="56.755290" lon="36.036420"><time>1970-01-01T00:00:01.000Z</time></trkpt>
			<trkpt lat="56.755214" lon="36.036143"><time>1970-01-01T00:00:01.000Z</time></trkpt>
			<trkpt lat="56.755208" lon="36.035929"><time>1970-01-01T00:00:01.000Z</time></trkpt>
			<trkpt lat="56.755246" lon="36.035650"><time>1970-01-01T00:00:01.000Z</time></trkpt>
			<trkpt lat="56.755184" lon="36.035516"><time>1970-01-01T00:00:01.000Z</time></trkpt>
			<trkpt lat="56.755055" lon="36.035205"><time>1970-01-01T00:00:01.000Z</time></trkpt>
			<trkpt lat="56.755005" lon="36.034982"><time>1970-01-01T00:00:01.000Z</time></trkpt>
			<trkpt lat="56.754929" lon="36.034679"><time>1970-01-01T00:00:01.000Z</time></trkpt>
			<trkpt lat="56.754893" lon="36.034496"><time>1970-01-01T00:00:01.000Z</time></trkpt>
			<trkpt lat="56.754655" lon="36.033627"><time>1970-01-01T00:00:01.000Z</time></trkpt>
			<trkpt lat="56.754593" lon="36.033424"><time>1970-01-01T00:00:01.000Z</time></trkpt>
			<trkpt lat="56.754443" lon="36.033456"><time>1970-01-01T00:00:01.000Z</time></trkpt>
			<trkpt lat="56.754315" lon="36.033558"><time>1970-01-01T00:00:01.000Z</time></trkpt>
			<trkpt lat="56.754235" lon="36.033617"><time>1970-01-01T00:00:01.000Z</time></trkpt>
			<trkpt lat="56.754146" lon="36.033702"><time>1970-01-01T00:00:01.000Z</time></trkpt>
			<trkpt lat="56.754064" lon="36.033837"><time>1970-01-01T00:00:01.000Z</time></trkpt>
			<trkpt lat="56.753893" lon="36.034067"><time>1970-01-01T00:00:01.000Z</time></trkpt>
			<trkpt lat="56.753758" lon="36.034217"><time>1970-01-01T00:00:01.000Z</time></trkpt>
			<trkpt lat="56.753785" lon="36.034572"><time>1970-01-01T00:00:01.000Z</time></trkpt>
			<trkpt lat="56.753790" lon="36.035162"><time>1970-01-01T00:00:01.000Z</time></trkpt>
			<trkpt lat="56.753796" lon="36.035505"><time>1970-01-01T00:00:01.000Z</time></trkpt>
			<trkpt lat="56.753758" lon="36.035800"><time>1970-01-01T00:00:01.000Z</time></trkpt>
			<trkpt lat="56.753726" lon="36.036186"><time>1970-01-01T00:00:01.000Z</time></trkpt>
			<trkpt lat="56.753688" lon="36.036320"><time>1970-01-01T00:00:01.000Z</time></trkpt>
			<trkpt lat="56.753617" lon="36.036331"><time>1970-01-01T00:00:01.000Z</time></trkpt>
			<trkpt lat="56.753555" lon="36.036299"><time>1970-01-01T00:00:01.000Z</time></trkpt>
			<trkpt lat="56.753108" lon="36.035725"><time>1970-01-01T00:00:01.000Z</time></trkpt>
			<trkpt lat="56.752488" lon="36.034958"><time>1970-01-01T00:00:01.000Z</time></trkpt>
			<trkpt lat="56.752202" lon="36.034856"><time>1970-01-01T00:00:01.000Z</time></trkpt>
			<trkpt lat="56.751211" lon="36.034276"><time>1970-01-01T00:00:01.000Z</time></trkpt>
			<trkpt lat="56.751129" lon="36.034099"><time>1970-01-01T00:00:01.000Z</time></trkpt>
			<trkpt lat="56.750993" lon="36.034019"><time>1970-01-01T00:00:01.000Z</time></trkpt>
			<trkpt lat="56.750755" lon="36.033949"><time>1970-01-01T00:00:01.000Z</time></trkpt>
			<trkpt lat="56.750638" lon="36.033863"><time>1970-01-01T00:00:01.000Z</time></trkpt>
			<trkpt lat="56.750152" lon="36.033646"><time>1970-01-01T00:00:01.000Z</time></trkpt>
			<trkpt lat="56.749935" lon="36.033485"><time>1970-01-01T00:00:01.000Z</time></trkpt>
			<trkpt lat="56.749708" lon="36.033287"><time>1970-01-01T00:00:01.000Z</time></trkpt>
			<trkpt lat="56.749138" lon="36.032876"><time>1970-01-01T00:00:01.000Z</time></trkpt>
			<trkpt lat="56.749058" lon="36.032839"><time>1970-01-01T00:00:01.000Z</time></trkpt>
			<trkpt lat="56.748137" lon="36.031047"><time>1970-01-01T00:00:01.000Z</time></trkpt>
			<trkpt lat="56.748023" lon="36.031144"><time>1970-01-01T00:00:01.000Z</time></trkpt>
			<trkpt lat="56.747902" lon="36.030988"><time>1970-01-01T00:00:01.000Z</time></trkpt>
			<trkpt lat="56.747673" lon="36.030827"><time>1970-01-01T00:00:01.000Z</time></trkpt>
			<trkpt lat="56.747402" lon="36.030618"><time>1970-01-01T00:00:01.000Z</time></trkpt>
			<trkpt lat="56.746793" lon="36.030183"><time>1970-01-01T00:00:01.000Z</time></trkpt>
			<trkpt lat="56.746473" lon="36.030194"><time>1970-01-01T00:00:01.000Z</time></trkpt>
			<trkpt lat="56.746099" lon="36.030194"><time>1970-01-01T00:00:01.000Z</time></trkpt>
			<trkpt lat="56.745981" lon="36.030216"><time>1970-01-01T00:00:01.000Z</time></trkpt>
			<trkpt lat="56.745899" lon="36.030183"><time>1970-01-01T00:00:01.000Z</time></trkpt>
			<trkpt lat="56.745823" lon="36.030092"><time>1970-01-01T00:00:01.000Z</time></trkpt>
			<trkpt lat="56.745067" lon="36.029781"><time>1970-01-01T00:00:01.000Z</time></trkpt>
			<trkpt lat="56.744640" lon="36.029556"><time>1970-01-01T00:00:01.000Z</time></trkpt>
			<trkpt lat="56.744366" lon="36.029411"><time>1970-01-01T00:00:01.000Z</time></trkpt>
			<trkpt lat="56.744149" lon="36.029202"><time>1970-01-01T00:00:01.000Z</time></trkpt>
			<trkpt lat="56.743490" lon="36.028504"><time>1970-01-01T00:00:01.000Z</time></trkpt>
			<trkpt lat="56.743318" lon="36.028386"><time>1970-01-01T00:00:01.000Z</time></trkpt>
			<trkpt lat="56.743143" lon="36.028274"><time>1970-01-01T00:00:01.000Z</time></trkpt>
			<trkpt lat="56.742940" lon="36.028140"><time>1970-01-01T00:00:01.000Z</time></trkpt>
			<trkpt lat="56.742772" lon="36.027968"><time>1970-01-01T00:00:01.000Z</time></trkpt>
			<trkpt lat="56.742490" lon="36.027769"><time>1970-01-01T00:00:01.000Z</time></trkpt>
			<trkpt lat="56.742372" lon="36.027743"><time>1970-01-01T00:00:01.000Z</time></trkpt>
			<trkpt lat="56.742160" lon="36.027700"><time>1970-01-01T00:00:01.000Z</time></trkpt>
			<trkpt lat="56.742025" lon="36.027705"><time>1970-01-01T00:00:01.000Z</time></trkpt>
			<trkpt lat="56.741648" lon="36.027753"><time>1970-01-01T00:00:01.000Z</time></trkpt>
			<trkpt lat="56.741425" lon="36.027769"><time>1970-01-01T00:00:01.000Z</time></trkpt>
			<trkpt lat="56.741266" lon="36.027759"><time>1970-01-01T00:00:01.000Z</time></trkpt>
			<trkpt lat="56.741098" lon="36.027753"><time>1970-01-01T00:00:01.000Z</time></trkpt>
			<trkpt lat="56.740924" lon="36.027764"><time>1970-01-01T00:00:01.000Z</time></trkpt>
			<trkpt lat="56.740810" lon="36.027775"><time>1970-01-01T00:00:01.000Z</time></trkpt>
			<trkpt lat="56.740718" lon="36.027850"><time>1970-01-01T00:00:01.000Z</time></trkpt>
			<trkpt lat="56.740601" lon="36.027877"><time>1970-01-01T00:00:01.000Z</time></trkpt>
			<trkpt lat="56.740380" lon="36.027877"><time>1970-01-01T00:00:01.000Z</time></trkpt>
			<trkpt lat="56.740268" lon="36.027909"><time>1970-01-01T00:00:01.000Z</time></trkpt>
			<trkpt lat="56.740154" lon="36.027984"><time>1970-01-01T00:00:01.000Z</time></trkpt>
			<trkpt lat="56.740157" lon="36.028333"><time>1970-01-01T00:00:01.000Z</time></trkpt>
			<trkpt lat="56.740180" lon="36.028676"><time>1970-01-01T00:00:01.000Z</time></trkpt>
			<trkpt lat="56.740165" lon="36.028751"><time>1970-01-01T00:00:01.000Z</time></trkpt>
			<trkpt lat="56.740077" lon="36.028848"><time>1970-01-01T00:00:01.000Z</time></trkpt>
			<trkpt lat="56.739931" lon="36.028829"><time>1970-01-01T00:00:01.000Z</time></trkpt>
			<trkpt lat="56.739733" lon="36.028805"><time>1970-01-01T00:00:01.000Z</time></trkpt>
			<trkpt lat="56.739577" lon="36.028746"><time>1970-01-01T00:00:01.000Z</time></trkpt>
			<trkpt lat="56.739455" lon="36.028722"><time>1970-01-01T00:00:01.000Z</time></trkpt>
			<trkpt lat="56.739359" lon="36.028730"><time>1970-01-01T00:00:01.000Z</time></trkpt>
			<trkpt lat="56.739271" lon="36.028692"><time>1970-01-01T00:00:01.000Z</time></trkpt>
			<trkpt lat="56.739183" lon="36.028606"><time>1970-01-01T00:00:01.000Z</time></trkpt>
			<trkpt lat="56.739056" lon="36.028569"><time>1970-01-01T00:00:01.000Z</time></trkpt>
			<trkpt lat="56.738738" lon="36.028478"><time>1970-01-01T00:00:01.000Z</time></trkpt>
			<trkpt lat="56.738474" lon="36.028424"><time>1970-01-01T00:00:01.000Z</time></trkpt>
			<trkpt lat="56.738182" lon="36.028338"><time>1970-01-01T00:00:01.000Z</time></trkpt>
			<trkpt lat="56.737912" lon="36.028263"><time>1970-01-01T00:00:01.000Z</time></trkpt>
			<trkpt lat="56.737723" lon="36.028209"><time>1970-01-01T00:00:01.000Z</time></trkpt>
			<trkpt lat="56.737523" lon="36.028166"><time>1970-01-01T00:00:01.000Z</time></trkpt>
			<trkpt lat="56.737394" lon="36.028284"><time>1970-01-01T00:00:01.000Z</time></trkpt>
			<trkpt lat="56.737188" lon="36.028526"><time>1970-01-01T00:00:01.000Z</time></trkpt>
			<trkpt lat="56.737053" lon="36.028692"><time>1970-01-01T00:00:01.000Z</time></trkpt>
			<trkpt lat="56.736870" lon="36.028826"><time>1970-01-01T00:00:01.000Z</time></trkpt>
			<trkpt lat="56.736641" lon="36.028923"><time>1970-01-01T00:00:01.000Z</time></trkpt>
			<trkpt lat="56.736488" lon="36.028955"><time>1970-01-01T00:00:01.000Z</time></trkpt>
			<trkpt lat="56.736349" lon="36.028928"><time>1970-01-01T00:00:01.000Z</time></trkpt>
			<trkpt lat="56.735770" lon="36.028773"><time>1970-01-01T00:00:01.000Z</time></trkpt>
			<trkpt lat="56.735599" lon="36.028762"><time>1970-01-01T00:00:01.000Z</time></trkpt>
			<trkpt lat="56.735152" lon="36.028751"><time>1970-01-01T00:00:01.000Z</time></trkpt>
			<trkpt lat="56.734546" lon="36.028703"><time>1970-01-01T00:00:01.000Z</time></trkpt>
			<trkpt lat="56.734122" lon="36.028724"><time>1970-01-01T00:00:01.000Z</time></trkpt>
			<trkpt lat="56.733925" lon="36.028746"><time>1970-01-01T00:00:01.000Z</time></trkpt>
			<trkpt lat="56.733766" lon="36.028727"><time>1970-01-01T00:00:01.000Z</time></trkpt>
			<trkpt lat="56.733775" lon="36.028504"><time>1970-01-01T00:00:01.000Z</time></trkpt>
			<trkpt lat="56.733769" lon="36.028440"><time>1970-01-01T00:00:01.000Z</time></trkpt>
			<trkpt lat="56.733742" lon="36.028338"><time>1970-01-01T00:00:01.000Z</time></trkpt>
			<trkpt lat="56.733392" lon="36.028188"><time>1970-01-01T00:00:01.000Z</time></trkpt>
			<trkpt lat="56.733316" lon="36.028011"><time>1970-01-01T00:00:01.000Z</time></trkpt>
			<trkpt lat="56.733251" lon="36.027946"><time>1970-01-01T00:00:01.000Z</time></trkpt>
			<trkpt lat="56.733136" lon="36.027710"><time>1970-01-01T00:00:01.000Z</time></trkpt>
			<trkpt lat="56.733057" lon="36.027641"><time>1970-01-01T00:00:01.000Z</time></trkpt>
			<trkpt lat="56.732942" lon="36.027662"><time>1970-01-01T00:00:01.000Z</time></trkpt>
			<trkpt lat="56.732868" lon="36.027737"><time>1970-01-01T00:00:01.000Z</time></trkpt>
			<trkpt lat="56.732765" lon="36.027630"><time>1970-01-01T00:00:01.000Z</time></trkpt>
			<trkpt lat="56.732636" lon="36.027555"><time>1970-01-01T00:00:01.000Z</time></trkpt>
			<trkpt lat="56.732607" lon="36.027528"><time>1970-01-01T00:00:01.000Z</time></trkpt>
			<trkpt lat="56.732574" lon="36.027560"><time>1970-01-01T00:00:01.000Z</time></trkpt>
			<trkpt lat="56.732492" lon="36.027399"><time>1970-01-01T00:00:01.000Z</time></trkpt>
			<trkpt lat="56.732386" lon="36.027335"><time>1970-01-01T00:00:01.000Z</time></trkpt>
			<trkpt lat="56.732321" lon="36.027287"><time>1970-01-01T00:00:01.000Z</time></trkpt>
			<trkpt lat="56.732195" lon="36.026954"><time>1970-01-01T00:00:01.000Z</time></trkpt>
			<trkpt lat="56.732127" lon="36.026922"><time>1970-01-01T00:00:01.000Z</time></trkpt>
			<trkpt lat="56.732094" lon="36.026863"><time>1970-01-01T00:00:01.000Z</time></trkpt>
			<trkpt lat="56.732009" lon="36.026841"><time>1970-01-01T00:00:01.000Z</time></trkpt>
			<trkpt lat="56.731980" lon="36.026863"><time>1970-01-01T00:00:01.000Z</time></trkpt>
			<trkpt lat="56.731939" lon="36.026788"><time>1970-01-01T00:00:01.000Z</time></trkpt>
			<trkpt lat="56.731880" lon="36.026798"><time>1970-01-01T00:00:01.000Z</time></trkpt>
			<trkpt lat="56.731825" lon="36.026788"><time>1970-01-01T00:00:01.000Z</time></trkpt>
			<trkpt lat="56.731774" lon="36.026734"><time>1970-01-01T00:00:01.000Z</time></trkpt>
			<trkpt lat="56.731735" lon="36.026579"><time>1970-01-01T00:00:01.000Z</time></trkpt>
			<trkpt lat="56.731680" lon="36.026579"><time>1970-01-01T00:00:01.000Z</time></trkpt>
			<trkpt lat="56.731615" lon="36.026235"><time>1970-01-01T00:00:01.000Z</time></trkpt>
			<trkpt lat="56.731529" lon="36.026267"><time>1970-01-01T00:00:01.000Z</time></trkpt>
			<trkpt lat="56.731407" lon="36.026192"><time>1970-01-01T00:00:01.000Z</time></trkpt>
			<trkpt lat="56.731335" lon="36.026182"><time>1970-01-01T00:00:01.000Z</time></trkpt>
			<trkpt lat="56.731123" lon="36.026168"><time>1970-01-01T00:00:01.000Z</time></trkpt>
			<trkpt lat="56.731082" lon="36.026133"><time>1970-01-01T00:00:01.000Z</time></trkpt>
			<trkpt lat="56.730638" lon="36.018194"><time>1970-01-01T00:00:01.000Z</time></trkpt>
			<trkpt lat="56.730906" lon="36.017464"><time>1970-01-01T00:00:01.000Z</time></trkpt>
			<trkpt lat="56.731026" lon="36.017309"><time>1970-01-01T00:00:01.000Z</time></trkpt>
			<trkpt lat="56.731129" lon="36.017432"><time>1970-01-01T00:00:01.000Z</time></trkpt>
			<trkpt lat="56.731203" lon="36.017421"><time>1970-01-01T00:00:01.000Z</time></trkpt>
			<trkpt lat="56.731329" lon="36.017502"><time>1970-01-01T00:00:01.000Z</time></trkpt>
			<trkpt lat="56.731385" lon="36.017470"><time>1970-01-01T00:00:01.000Z</time></trkpt>
			<trkpt lat="56.731429" lon="36.017303"><time>1970-01-01T00:00:01.000Z</time></trkpt>
			<trkpt lat="56.731432" lon="36.017153"><time>1970-01-01T00:00:01.000Z</time></trkpt>
			<trkpt lat="56.731499" lon="36.017116"><time>1970-01-01T00:00:01.000Z</time></trkpt>
			<trkpt lat="56.731559" lon="36.017202"><time>1970-01-01T00:00:01.000Z</time></trkpt>
			<trkpt lat="56.731709" lon="36.017228"><time>1970-01-01T00:00:01.000Z</time></trkpt>
			<trkpt lat="56.731780" lon="36.017067"><time>1970-01-01T00:00:01.000Z</time></trkpt>
			<trkpt lat="56.731788" lon="36.016939"><time>1970-01-01T00:00:01.000Z</time></trkpt>
			<trkpt lat="56.731850" lon="36.016960"><time>1970-01-01T00:00:01.000Z</time></trkpt>
			<trkpt lat="56.732036" lon="36.016794"><time>1970-01-01T00:00:01.000Z</time></trkpt>
			<trkpt lat="56.732242" lon="36.016746"><time>1970-01-01T00:00:01.000Z</time></trkpt>
			<trkpt lat="56.732280" lon="36.016799"><time>1970-01-01T00:00:01.000Z</time></trkpt>
			<trkpt lat="56.732383" lon="36.016794"><time>1970-01-01T00:00:01.000Z</time></trkpt>
			<trkpt lat="56.732577" lon="36.016906"><time>1970-01-01T00:00:01.000Z</time></trkpt>
			<trkpt lat="56.733101" lon="36.016880"><time>1970-01-01T00:00:01.000Z</time></trkpt>
			<trkpt lat="56.733628" lon="36.016740"><time>1970-01-01T00:00:01.000Z</time></trkpt>
			<trkpt lat="56.733948" lon="36.016472"><time>1970-01-01T00:00:01.000Z</time></trkpt>
			<trkpt lat="56.734019" lon="36.016429"><time>1970-01-01T00:00:01.000Z</time></trkpt>
			<trkpt lat="56.734060" lon="36.016349"><time>1970-01-01T00:00:01.000Z</time></trkpt>
			<trkpt lat="56.734157" lon="36.016333"><time>1970-01-01T00:00:01.000Z</time></trkpt>
			<trkpt lat="56.734225" lon="36.016236"><time>1970-01-01T00:00:01.000Z</time></trkpt>
			<trkpt lat="56.734207" lon="36.016005"><time>1970-01-01T00:00:01.000Z</time></trkpt>
			<trkpt lat="56.734228" lon="36.015705"><time>1970-01-01T00:00:01.000Z</time></trkpt>
			<trkpt lat="56.734276" lon="36.015394"><time>1970-01-01T00:00:01.000Z</time></trkpt>
			<trkpt lat="56.734313" lon="36.015093"><time>1970-01-01T00:00:01.000Z</time></trkpt>
			<trkpt lat="56.734225" lon="36.014916"><time>1970-01-01T00:00:01.000Z</time></trkpt>
			<trkpt lat="56.734148" lon="36.014648"><time>1970-01-01T00:00:01.000Z</time></trkpt>
			<trkpt lat="56.734048" lon="36.014514"><time>1970-01-01T00:00:01.000Z</time></trkpt>
			<trkpt lat="56.734063" lon="36.014364"><time>1970-01-01T00:00:01.000Z</time></trkpt>
			<trkpt lat="56.734045" lon="36.014251"><time>1970-01-01T00:00:01.000Z</time></trkpt>
			<trkpt lat="56.734440" lon="36.013720"><time>1970-01-01T00:00:01.000Z</time></trkpt>
			<trkpt lat="56.735011" lon="36.010963"><time>1970-01-01T00:00:01.000Z</time></trkpt>
			<trkpt lat="56.735317" lon="36.009209"><time>1970-01-01T00:00:01.000Z</time></trkpt>
			<trkpt lat="56.735767" lon="36.006333"><time>1970-01-01T00:00:01.000Z</time></trkpt>
			<trkpt lat="56.736126" lon="36.004059"><time>1970-01-01T00:00:01.000Z</time></trkpt>
			<trkpt lat="56.736376" lon="36.002728"><time>1970-01-01T00:00:01.000Z</time></trkpt>
			<trkpt lat="56.737829" lon="36.000293"><time>1970-01-01T00:00:01.000Z</time></trkpt>
			<trkpt lat="56.738803" lon="35.998630"><time>1970-01-01T00:00:01.000Z</time></trkpt>
			<trkpt lat="56.739918" lon="35.996795"><time>1970-01-01T00:00:01.000Z</time></trkpt>
			<trkpt lat="56.741295" lon="35.994532"><time>1970-01-01T00:00:01.000Z</time></trkpt>
			<trkpt lat="56.741704" lon="35.993845"><time>1970-01-01T00:00:01.000Z</time></trkpt>
			<trkpt lat="56.742034" lon="35.993180"><time>1970-01-01T00:00:01.000Z</time></trkpt>
			<trkpt lat="56.742260" lon="35.992949"><time>1970-01-01T00:00:01.000Z</time></trkpt>
			<trkpt lat="56.742369" lon="35.992745"><time>1970-01-01T00:00:01.000Z</time></trkpt>
			<trkpt lat="56.742545" lon="35.992659"><time>1970-01-01T00:00:01.000Z</time></trkpt>
			<trkpt lat="56.742581" lon="35.992439"><time>1970-01-01T00:00:01.000Z</time></trkpt>
			<trkpt lat="56.743040" lon="35.991597"><time>1970-01-01T00:00:01.000Z</time></trkpt>
			<trkpt lat="56.743257" lon="35.991173"><time>1970-01-01T00:00:01.000Z</time></trkpt>
			<trkpt lat="56.743163" lon="35.990905"><time>1970-01-01T00:00:01.000Z</time></trkpt>
			<trkpt lat="56.743204" lon="35.990691"><time>1970-01-01T00:00:01.000Z</time></trkpt>
			<trkpt lat="56.743148" lon="35.990288"><time>1970-01-01T00:00:01.000Z</time></trkpt>
			<trkpt lat="56.743157" lon="35.989805"><time>1970-01-01T00:00:01.000Z</time></trkpt>
			<trkpt lat="56.743419" lon="35.989341"><time>1970-01-01T00:00:01.000Z</time></trkpt>
			<trkpt lat="56.743416" lon="35.989280"><time>1970-01-01T00:00:01.000Z</time></trkpt>
			<trkpt lat="56.743522" lon="35.989154"><time>1970-01-01T00:00:01.000Z</time></trkpt>
			<trkpt lat="56.743531" lon="35.989022"><time>1970-01-01T00:00:01.000Z</time></trkpt>
			<trkpt lat="56.743557" lon="35.988995"><time>1970-01-01T00:00:01.000Z</time></trkpt>
			<trkpt lat="56.743537" lon="35.988845"><time>1970-01-01T00:00:01.000Z</time></trkpt>
			<trkpt lat="56.743622" lon="35.988298"><time>1970-01-01T00:00:01.000Z</time></trkpt>
			<trkpt lat="56.743654" lon="35.988274"><time>1970-01-01T00:00:01.000Z</time></trkpt>
			<trkpt lat="56.743672" lon="35.988137"><time>1970-01-01T00:00:01.000Z</time></trkpt>
			<trkpt lat="56.743790" lon="35.987939"><time>1970-01-01T00:00:01.000Z</time></trkpt>
			<trkpt lat="56.743799" lon="35.987740"><time>1970-01-01T00:00:01.000Z</time></trkpt>
			<trkpt lat="56.743784" lon="35.987617"><time>1970-01-01T00:00:01.000Z</time></trkpt>
			<trkpt lat="56.743775" lon="35.987440"><time>1970-01-01T00:00:01.000Z</time></trkpt>
			<trkpt lat="56.743774" lon="35.987300"><time>1970-01-01T00:00:01.000Z</time></trkpt>
			<trkpt lat="56.743810" lon="35.987231"><time>1970-01-01T00:00:01.000Z</time></trkpt>
			<trkpt lat="56.743844" lon="35.987163"><time>1970-01-01T00:00:01.000Z</time></trkpt>
			<trkpt lat="56.743866" lon="35.986962"><time>1970-01-01T00:00:01.000Z</time></trkpt>
			<trkpt lat="56.743822" lon="35.986850"><time>1970-01-01T00:00:01.000Z</time></trkpt>
			<trkpt lat="56.743787" lon="35.986485"><time>1970-01-01T00:00:01.000Z</time></trkpt>
			<trkpt lat="56.743837" lon="35.986233"><time>1970-01-01T00:00:01.000Z</time></trkpt>
			<trkpt lat="56.743793" lon="35.986050"><time>1970-01-01T00:00:01.000Z</time></trkpt>
			<trkpt lat="56.743878" lon="35.985718"><time>1970-01-01T00:00:01.000Z</time></trkpt>
			<trkpt lat="56.743852" lon="35.985584"><time>1970-01-01T00:00:01.000Z</time></trkpt>
			<trkpt lat="56.743893" lon="35.985315"><time>1970-01-01T00:00:01.000Z</time></trkpt>
			<trkpt lat="56.743881" lon="35.984999"><time>1970-01-01T00:00:01.000Z</time></trkpt>
			<trkpt lat="56.743966" lon="35.984092"><time>1970-01-01T00:00:01.000Z</time></trkpt>
			<trkpt lat="56.744043" lon="35.984055"><time>1970-01-01T00:00:01.000Z</time></trkpt>
			<trkpt lat="56.744072" lon="35.983974"><time>1970-01-01T00:00:01.000Z</time></trkpt>
			<trkpt lat="56.744166" lon="35.983931"><time>1970-01-01T00:00:01.000Z</time></trkpt>
			<trkpt lat="56.744205" lon="35.984007"><time>1970-01-01T00:00:01.000Z</time></trkpt>
			<trkpt lat="56.744255" lon="35.983990"><time>1970-01-01T00:00:01.000Z</time></trkpt>
			<trkpt lat="56.744310" lon="35.983856"><time>1970-01-01T00:00:01.000Z</time></trkpt>
			<trkpt lat="56.744381" lon="35.983781"><time>1970-01-01T00:00:01.000Z</time></trkpt>
			<trkpt lat="56.744425" lon="35.983711"><time>1970-01-01T00:00:01.000Z</time></trkpt>
			<trkpt lat="56.744449" lon="35.983631"><time>1970-01-01T00:00:01.000Z</time></trkpt>
			<trkpt lat="56.744499" lon="35.983572"><time>1970-01-01T00:00:01.000Z</time></trkpt>
			<trkpt lat="56.744540" lon="35.983551"><time>1970-01-01T00:00:01.000Z</time></trkpt>
			<trkpt lat="56.744587" lon="35.983500"><time>1970-01-01T00:00:01.000Z</time></trkpt>
			<trkpt lat="56.744616" lon="35.983433"><time>1970-01-01T00:00:01.000Z</time></trkpt>
			<trkpt lat="56.744664" lon="35.983443"><time>1970-01-01T00:00:01.000Z</time></trkpt>
			<trkpt lat="56.744690" lon="35.983433"><time>1970-01-01T00:00:01.000Z</time></trkpt>
			<trkpt lat="56.744734" lon="35.983449"><time>1970-01-01T00:00:01.000Z</time></trkpt>
			<trkpt lat="56.744805" lon="35.983422"><time>1970-01-01T00:00:01.000Z</time></trkpt>
			<trkpt lat="56.744849" lon="35.983374"><time>1970-01-01T00:00:01.000Z</time></trkpt>
			<trkpt lat="56.744916" lon="35.983331"><time>1970-01-01T00:00:01.000Z</time></trkpt>
			<trkpt lat="56.744952" lon="35.983368"><time>1970-01-01T00:00:01.000Z</time></trkpt>
			<trkpt lat="56.745040" lon="35.983331"><time>1970-01-01T00:00:01.000Z</time></trkpt>
			<trkpt lat="56.745090" lon="35.983272"><time>1970-01-01T00:00:01.000Z</time></trkpt>
			<trkpt lat="56.745125" lon="35.983095"><time>1970-01-01T00:00:01.000Z</time></trkpt>
			<trkpt lat="56.745149" lon="35.982950"><time>1970-01-01T00:00:01.000Z</time></trkpt>
			<trkpt lat="56.745143" lon="35.982853"><time>1970-01-01T00:00:01.000Z</time></trkpt>
			<trkpt lat="56.745133" lon="35.982746"><time>1970-01-01T00:00:01.000Z</time></trkpt>
			<trkpt lat="56.745111" lon="35.982671"><time>1970-01-01T00:00:01.000Z</time></trkpt>
			<trkpt lat="56.745103" lon="35.982601"><time>1970-01-01T00:00:01.000Z</time></trkpt>
			<trkpt lat="56.745099" lon="35.982475"><time>1970-01-01T00:00:01.000Z</time></trkpt>
			<trkpt lat="56.745103" lon="35.982298"><time>1970-01-01T00:00:01.000Z</time></trkpt>
			<trkpt lat="56.745103" lon="35.982164"><time>1970-01-01T00:00:01.000Z</time></trkpt>
			<trkpt lat="56.745111" lon="35.982094"><time>1970-01-01T00:00:01.000Z</time></trkpt>
			<trkpt lat="56.745146" lon="35.982054"><time>1970-01-01T00:00:01.000Z</time></trkpt>
			<trkpt lat="56.745242" lon="35.982024"><time>1970-01-01T00:00:01.000Z</time></trkpt>
			<trkpt lat="56.745318" lon="35.981963"><time>1970-01-01T00:00:01.000Z</time></trkpt>
			<trkpt lat="56.745370" lon="35.981901"><time>1970-01-01T00:00:01.000Z</time></trkpt>
			<trkpt lat="56.745470" lon="35.981812"><time>1970-01-01T00:00:01.000Z</time></trkpt>
			<trkpt lat="56.745603" lon="35.981759"><time>1970-01-01T00:00:01.000Z</time></trkpt>
			<trkpt lat="56.745728" lon="35.981700"><time>1970-01-01T00:00:01.000Z</time></trkpt>
			<trkpt lat="56.745861" lon="35.981571"><time>1970-01-01T00:00:01.000Z</time></trkpt>
			<trkpt lat="56.745949" lon="35.981496"><time>1970-01-01T00:00:01.000Z</time></trkpt>
			<trkpt lat="56.746018" lon="35.981437"><time>1970-01-01T00:00:01.000Z</time></trkpt>
			<trkpt lat="56.746120" lon="35.981373"><time>1970-01-01T00:00:01.000Z</time></trkpt>
			<trkpt lat="56.746199" lon="35.981378"><time>1970-01-01T00:00:01.000Z</time></trkpt>
			<trkpt lat="56.746308" lon="35.981399"><time>1970-01-01T00:00:01.000Z</time></trkpt>
			<trkpt lat="56.746358" lon="35.981346"><time>1970-01-01T00:00:01.000Z</time></trkpt>
			<trkpt lat="56.746431" lon="35.981029"><time>1970-01-01T00:00:01.000Z</time></trkpt>
			<trkpt lat="56.746399" lon="35.980858"><time>1970-01-01T00:00:01.000Z</time></trkpt>
			<trkpt lat="56.746443" lon="35.980375"><time>1970-01-01T00:00:01.000Z</time></trkpt>
			<trkpt lat="56.746637" lon="35.980337"><time>1970-01-01T00:00:01.000Z</time></trkpt>
			<trkpt lat="56.746708" lon="35.980214"><time>1970-01-01T00:00:01.000Z</time></trkpt>
			<trkpt lat="56.746661" lon="35.980069"><time>1970-01-01T00:00:01.000Z</time></trkpt>
			<trkpt lat="56.746681" lon="35.979865"><time>1970-01-01T00:00:01.000Z</time></trkpt>
			<trkpt lat="56.746614" lon="35.979589"><time>1970-01-01T00:00:01.000Z</time></trkpt>
			<trkpt lat="56.746443" lon="35.979144"><time>1970-01-01T00:00:01.000Z</time></trkpt>
			<trkpt lat="56.746526" lon="35.978618"><time>1970-01-01T00:00:01.000Z</time></trkpt>
			<trkpt lat="56.746567" lon="35.978462"><time>1970-01-01T00:00:01.000Z</time></trkpt>
			<trkpt lat="56.746664" lon="35.978301"><time>1970-01-01T00:00:01.000Z</time></trkpt>
			<trkpt lat="56.746711" lon="35.978141"><time>1970-01-01T00:00:01.000Z</time></trkpt>
			<trkpt lat="56.746779" lon="35.978044"><time>1970-01-01T00:00:01.000Z</time></trkpt>
			<trkpt lat="56.746814" lon="35.977808"><time>1970-01-01T00:00:01.000Z</time></trkpt>
			<trkpt lat="56.746673" lon="35.977108"><time>1970-01-01T00:00:01.000Z</time></trkpt>
			<trkpt lat="56.746770" lon="35.976829"><time>1970-01-01T00:00:01.000Z</time></trkpt>
			<trkpt lat="56.746827" lon="35.976617"><time>1970-01-01T00:00:01.000Z</time></trkpt>
			<trkpt lat="56.746829" lon="35.976384"><time>1970-01-01T00:00:01.000Z</time></trkpt>
			<trkpt lat="56.746796" lon="35.975987"><time>1970-01-01T00:00:01.000Z</time></trkpt>
			<trkpt lat="56.746714" lon="35.975386"><time>1970-01-01T00:00:01.000Z</time></trkpt>
			<trkpt lat="56.746684" lon="35.975295"><time>1970-01-01T00:00:01.000Z</time></trkpt>
			<trkpt lat="56.746623" lon="35.975252"><time>1970-01-01T00:00:01.000Z</time></trkpt>
			<trkpt lat="56.746552" lon="35.975225"><time>1970-01-01T00:00:01.000Z</time></trkpt>
			<trkpt lat="56.746502" lon="35.975153"><time>1970-01-01T00:00:01.000Z</time></trkpt>
			<trkpt lat="56.746467" lon="35.975064"><time>1970-01-01T00:00:01.000Z</time></trkpt>
			<trkpt lat="56.746390" lon="35.975016"><time>1970-01-01T00:00:01.000Z</time></trkpt>
			<trkpt lat="56.746309" lon="35.975002"><time>1970-01-01T00:00:01.000Z</time></trkpt>
			<trkpt lat="56.746181" lon="35.975107"><time>1970-01-01T00:00:01.000Z</time></trkpt>
			<trkpt lat="56.746084" lon="35.975166"><time>1970-01-01T00:00:01.000Z</time></trkpt>
			<trkpt lat="56.745990" lon="35.975220"><time>1970-01-01T00:00:01.000Z</time></trkpt>
			<trkpt lat="56.745912" lon="35.975233"><time>1970-01-01T00:00:01.000Z</time></trkpt>
			<trkpt lat="56.745817" lon="35.975214"><time>1970-01-01T00:00:01.000Z</time></trkpt>
			<trkpt lat="56.745731" lon="35.975096"><time>1970-01-01T00:00:01.000Z</time></trkpt>
			<trkpt lat="56.745687" lon="35.975000"><time>1970-01-01T00:00:01.000Z</time></trkpt>
			<trkpt lat="56.745675" lon="35.974844"><time>1970-01-01T00:00:01.000Z</time></trkpt>
			<trkpt lat="56.745628" lon="35.974452"><time>1970-01-01T00:00:01.000Z</time></trkpt>
			<trkpt lat="56.745614" lon="35.973374"><time>1970-01-01T00:00:01.000Z</time></trkpt>
			<trkpt lat="56.745661" lon="35.973101"><time>1970-01-01T00:00:01.000Z</time></trkpt>
			<trkpt lat="56.745696" lon="35.972360"><time>1970-01-01T00:00:01.000Z</time></trkpt>
			<trkpt lat="56.745670" lon="35.972146"><time>1970-01-01T00:00:01.000Z</time></trkpt>
			<trkpt lat="56.745680" lon="35.971698"><time>1970-01-01T00:00:01.000Z</time></trkpt>
			<trkpt lat="56.745655" lon="35.971397"><time>1970-01-01T00:00:01.000Z</time></trkpt>
			<trkpt lat="56.745675" lon="35.970987"><time>1970-01-01T00:00:01.000Z</time></trkpt>
			<trkpt lat="56.745714" lon="35.970070"><time>1970-01-01T00:00:01.000Z</time></trkpt>
			<trkpt lat="56.745749" lon="35.969887"><time>1970-01-01T00:00:01.000Z</time></trkpt>
			<trkpt lat="56.745839" lon="35.969861"><time>1970-01-01T00:00:01.000Z</time></trkpt>
			<trkpt lat="56.745948" lon="35.969920"><time>1970-01-01T00:00:01.000Z</time></trkpt>
			<trkpt lat="56.746100" lon="35.970000"><time>1970-01-01T00:00:01.000Z</time></trkpt>
			<trkpt lat="56.746399" lon="35.970075"><time>1970-01-01T00:00:01.000Z</time></trkpt>
			<trkpt lat="56.746405" lon="35.970322"><time>1970-01-01T00:00:01.000Z</time></trkpt>
			<trkpt lat="56.746317" lon="35.970504"><time>1970-01-01T00:00:01.000Z</time></trkpt>
			<trkpt lat="56.746599" lon="35.972081"><time>1970-01-01T00:00:01.000Z</time></trkpt>
			<trkpt lat="56.746655" lon="35.972511"><time>1970-01-01T00:00:01.000Z</time></trkpt>
			<trkpt lat="56.746708" lon="35.972832"><time>1970-01-01T00:00:01.000Z</time></trkpt>
			<trkpt lat="56.746911" lon="35.973954"><time>1970-01-01T00:00:01.000Z</time></trkpt>
			<trkpt lat="56.746964" lon="35.974571"><time>1970-01-01T00:00:01.000Z</time></trkpt>
			<trkpt lat="56.747074" lon="35.974638"><time>1970-01-01T00:00:01.000Z</time></trkpt>
			<trkpt lat="56.747214" lon="35.974785"><time>1970-01-01T00:00:01.000Z</time></trkpt>
			<trkpt lat="56.747458" lon="35.974812"><time>1970-01-01T00:00:01.000Z</time></trkpt>
			<trkpt lat="56.747737" lon="35.974887"><time>1970-01-01T00:00:01.000Z</time></trkpt>
			<trkpt lat="56.747946" lon="35.974903"><time>1970-01-01T00:00:01.000Z</time></trkpt>
			<trkpt lat="56.748179" lon="35.974994"><time>1970-01-01T00:00:01.000Z</time></trkpt>
			<trkpt lat="56.748414" lon="35.975032"><time>1970-01-01T00:00:01.000Z</time></trkpt>
			<trkpt lat="56.748605" lon="35.975102"><time>1970-01-01T00:00:01.000Z</time></trkpt>
			<trkpt lat="56.748682" lon="35.975085"><time>1970-01-01T00:00:01.000Z</time></trkpt>
			<trkpt lat="56.748723" lon="35.975295"><time>1970-01-01T00:00:01.000Z</time></trkpt>
			<trkpt lat="56.748726" lon="35.975579"><time>1970-01-01T00:00:01.000Z</time></trkpt>
			<trkpt lat="56.748749" lon="35.976099"><time>1970-01-01T00:00:01.000Z</time></trkpt>
			<trkpt lat="56.748939" lon="35.976577"><time>1970-01-01T00:00:01.000Z</time></trkpt>
			<trkpt lat="56.749146" lon="35.977081"><time>1970-01-01T00:00:01.000Z</time></trkpt>
			<trkpt lat="56.749211" lon="35.977419"><time>1970-01-01T00:00:01.000Z</time></trkpt>
			<trkpt lat="56.749192" lon="35.977706"><time>1970-01-01T00:00:01.000Z</time></trkpt>
			<trkpt lat="56.749093" lon="35.978170"><time>1970-01-01T00:00:01.000Z</time></trkpt>
			<trkpt lat="56.748979" lon="35.978841"><time>1970-01-01T00:00:01.000Z</time></trkpt>
			<trkpt lat="56.748945" lon="35.979117"><time>1970-01-01T00:00:01.000Z</time></trkpt>
			<trkpt lat="56.748865" lon="35.979428"><time>1970-01-01T00:00:01.000Z</time></trkpt>
			<trkpt lat="56.748673" lon="35.980031"><time>1970-01-01T00:00:01.000Z</time></trkpt>
			<trkpt lat="56.748633" lon="35.980587"><time>1970-01-01T00:00:01.000Z</time></trkpt>
			<trkpt lat="56.748614" lon="35.981150"><time>1970-01-01T00:00:01.000Z</time></trkpt>
			<trkpt lat="56.748629" lon="35.981571"><time>1970-01-01T00:00:01.000Z</time></trkpt>
			<trkpt lat="56.748651" lon="35.982038"><time>1970-01-01T00:00:01.000Z</time></trkpt>
			<trkpt lat="56.748623" lon="35.982569"><time>1970-01-01T00:00:01.000Z</time></trkpt>
			<trkpt lat="56.748511" lon="35.983186"><time>1970-01-01T00:00:01.000Z</time></trkpt>
			<trkpt lat="56.748546" lon="35.983591"><time>1970-01-01T00:00:01.000Z</time></trkpt>
			<trkpt lat="56.748458" lon="35.983910"><time>1970-01-01T00:00:01.000Z</time></trkpt>
			<trkpt lat="56.748199" lon="35.984677"><time>1970-01-01T00:00:01.000Z</time></trkpt>
			<trkpt lat="56.747955" lon="35.985310"><time>1970-01-01T00:00:01.000Z</time></trkpt>
			<trkpt lat="56.747773" lon="35.985820"><time>1970-01-01T00:00:01.000Z</time></trkpt>
			<trkpt lat="56.748099" lon="35.985981"><time>1970-01-01T00:00:01.000Z</time></trkpt>
			<trkpt lat="56.749123" lon="35.986238"><time>1970-01-01T00:00:01.000Z</time></trkpt>
			<trkpt lat="56.749402" lon="35.986351"><time>1970-01-01T00:00:01.000Z</time></trkpt>
			<trkpt lat="56.749979" lon="35.986394"><time>1970-01-01T00:00:01.000Z</time></trkpt>
			<trkpt lat="56.750208" lon="35.986415"><time>1970-01-01T00:00:01.000Z</time></trkpt>
			<trkpt lat="56.750546" lon="35.986978"><time>1970-01-01T00:00:01.000Z</time></trkpt>
			<trkpt lat="56.751358" lon="35.988113"><time>1970-01-01T00:00:01.000Z</time></trkpt>
			<trkpt lat="56.751679" lon="35.988263"><time>1970-01-01T00:00:01.000Z</time></trkpt>
			<trkpt lat="56.752293" lon="35.988169"><time>1970-01-01T00:00:01.000Z</time></trkpt>
			<trkpt lat="56.752999" lon="35.988277"><time>1970-01-01T00:00:01.000Z</time></trkpt>
			<trkpt lat="56.753185" lon="35.988110"><time>1970-01-01T00:00:01.000Z</time></trkpt>
			<trkpt lat="56.753843" lon="35.987949"><time>1970-01-01T00:00:01.000Z</time></trkpt>
			<trkpt lat="56.754246" lon="35.987992"><time>1970-01-01T00:00:01.000Z</time></trkpt>
			<trkpt lat="56.754487" lon="35.988416"><time>1970-01-01T00:00:01.000Z</time></trkpt>
			<trkpt lat="56.754615" lon="35.988947"><time>1970-01-01T00:00:01.000Z</time></trkpt>
			<trkpt lat="56.754957" lon="35.989097"><time>1970-01-01T00:00:01.000Z</time></trkpt>
			<trkpt lat="56.755139" lon="35.989162"><time>1970-01-01T00:00:01.000Z</time></trkpt>
			<trkpt lat="56.755212" lon="35.989307"><time>1970-01-01T00:00:01.000Z</time></trkpt>
			<trkpt lat="56.755136" lon="35.989532"><time>1970-01-01T00:00:01.000Z</time></trkpt>
			<trkpt lat="56.755132" lon="35.989950"><time>1970-01-01T00:00:01.000Z</time></trkpt>
			<trkpt lat="56.755112" lon="35.990331"><time>1970-01-01T00:00:01.000Z</time></trkpt>
			<trkpt lat="56.755133" lon="35.990455"><time>1970-01-01T00:00:01.000Z</time></trkpt>
			<trkpt lat="56.755329" lon="35.990519"><time>1970-01-01T00:00:01.000Z</time></trkpt>
			<trkpt lat="56.755373" lon="35.990701"><time>1970-01-01T00:00:01.000Z</time></trkpt>
			<trkpt lat="56.755280" lon="35.990913"><time>1970-01-01T00:00:01.000Z</time></trkpt>
			<trkpt lat="56.755173" lon="35.991093"><time>1970-01-01T00:00:01.000Z</time></trkpt>
			<trkpt lat="56.755102" lon="35.991232"><time>1970-01-01T00:00:01.000Z</time></trkpt>
			<trkpt lat="56.755070" lon="35.991688"><time>1970-01-01T00:00:01.000Z</time></trkpt>
			<trkpt lat="56.755055" lon="35.992531"><time>1970-01-01T00:00:01.000Z</time></trkpt>
			<trkpt lat="56.755034" lon="35.992799"><time>1970-01-01T00:00:01.000Z</time></trkpt>
			<trkpt lat="56.754958" lon="35.993056"><time>1970-01-01T00:00:01.000Z</time></trkpt>
			<trkpt lat="56.754808" lon="35.993233"><time>1970-01-01T00:00:01.000Z</time></trkpt>
			<trkpt lat="56.754707" lon="35.993394"><time>1970-01-01T00:00:01.000Z</time></trkpt>
			<trkpt lat="56.754661" lon="35.993641"><time>1970-01-01T00:00:01.000Z</time></trkpt>
			<trkpt lat="56.754621" lon="35.994092"><time>1970-01-01T00:00:01.000Z</time></trkpt>
			<trkpt lat="56.754699" lon="35.994459"><time>1970-01-01T00:00:01.000Z</time></trkpt>
			<trkpt lat="56.754708" lon="35.994687"><time>1970-01-01T00:00:01.000Z</time></trkpt>
			<trkpt lat="56.754737" lon="35.994805"><time>1970-01-01T00:00:01.000Z</time></trkpt>
			<trkpt lat="56.754749" lon="35.994987"><time>1970-01-01T00:00:01.000Z</time></trkpt>
			<trkpt lat="56.754820" lon="35.995100"><time>1970-01-01T00:00:01.000Z</time></trkpt>
			<trkpt lat="56.754843" lon="35.995352"><time>1970-01-01T00:00:01.000Z</time></trkpt>
			<trkpt lat="56.754973" lon="35.995653"><time>1970-01-01T00:00:01.000Z</time></trkpt>
			<trkpt lat="56.755037" lon="35.995958"><time>1970-01-01T00:00:01.000Z</time></trkpt>
			<trkpt lat="56.754967" lon="35.996208"><time>1970-01-01T00:00:01.000Z</time></trkpt>
			<trkpt lat="56.754807" lon="35.996294"><time>1970-01-01T00:00:01.000Z</time></trkpt>
			<trkpt lat="56.754698" lon="35.996307"><time>1970-01-01T00:00:01.000Z</time></trkpt>
			<trkpt lat="56.754585" lon="35.996382"><time>1970-01-01T00:00:01.000Z</time></trkpt>
			<trkpt lat="56.754535" lon="35.996484"><time>1970-01-01T00:00:01.000Z</time></trkpt>
			<trkpt lat="56.754493" lon="35.996790"><time>1970-01-01T00:00:01.000Z</time></trkpt>
			<trkpt lat="56.754482" lon="35.997412"><time>1970-01-01T00:00:01.000Z</time></trkpt>
			<trkpt lat="56.754476" lon="35.997992"><time>1970-01-01T00:00:01.000Z</time></trkpt>
			<trkpt lat="56.754423" lon="35.998410"><time>1970-01-01T00:00:01.000Z</time></trkpt>
			<trkpt lat="56.754217" lon="35.998635"><time>1970-01-01T00:00:01.000Z</time></trkpt>
			<trkpt lat="56.754005" lon="35.998861"><time>1970-01-01T00:00:01.000Z</time></trkpt>
			<trkpt lat="56.753817" lon="35.999032"><time>1970-01-01T00:00:01.000Z</time></trkpt>
			<trkpt lat="56.753599" lon="35.999054"><time>1970-01-01T00:00:01.000Z</time></trkpt>
			<trkpt lat="56.753393" lon="35.999140"><time>1970-01-01T00:00:01.000Z</time></trkpt>
			<trkpt lat="56.753129" lon="35.999215"><time>1970-01-01T00:00:01.000Z</time></trkpt>
			<trkpt lat="56.752846" lon="35.999515"><time>1970-01-01T00:00:01.000Z</time></trkpt>
			<trkpt lat="56.752605" lon="35.999676"><time>1970-01-01T00:00:01.000Z</time></trkpt>
			<trkpt lat="56.752505" lon="36.000089"><time>1970-01-01T00:00:01.000Z</time></trkpt>
			<trkpt lat="56.752299" lon="36.000255"><time>1970-01-01T00:00:01.000Z</time></trkpt>
			<trkpt lat="56.752217" lon="36.000389"><time>1970-01-01T00:00:01.000Z</time></trkpt>
			<trkpt lat="56.752052" lon="36.000400"><time>1970-01-01T00:00:01.000Z</time></trkpt>
			<trkpt lat="56.751905" lon="36.000475"><time>1970-01-01T00:00:01.000Z</time></trkpt>
			<trkpt lat="56.751170" lon="36.000792"><time>1970-01-01T00:00:01.000Z</time></trkpt>
			<trkpt lat="56.750346" lon="36.001382"><time>1970-01-01T00:00:01.000Z</time></trkpt>
			<trkpt lat="56.751035" lon="36.008313"><time>1970-01-01T00:00:01.000Z</time></trkpt>
			<trkpt lat="56.750935" lon="36.008452"><time>1970-01-01T00:00:01.000Z</time></trkpt>
			<trkpt lat="56.750999" lon="36.008935"><time>1970-01-01T00:00:01.000Z</time></trkpt>
			<trkpt lat="56.750999" lon="36.009150"><time>1970-01-01T00:00:01.000Z</time></trkpt>
			<trkpt lat="56.751011" lon="36.009654"><time>1970-01-01T00:00:01.000Z</time></trkpt>
			<trkpt lat="56.751058" lon="36.010019"><time>1970-01-01T00:00:01.000Z</time></trkpt>
			<trkpt lat="56.751129" lon="36.010255"><time>1970-01-01T00:00:01.000Z</time></trkpt>
			<trkpt lat="56.751155" lon="36.010619"><time>1970-01-01T00:00:01.000Z</time></trkpt>
			<trkpt lat="56.751182" lon="36.011102"><time>1970-01-01T00:00:01.000Z</time></trkpt>
			<trkpt lat="56.751176" lon="36.011424"><time>1970-01-01T00:00:01.000Z</time></trkpt>
			<trkpt lat="56.751146" lon="36.011564"><time>1970-01-01T00:00:01.000Z</time></trkpt>
			<trkpt lat="56.751188" lon="36.011671"><time>1970-01-01T00:00:01.000Z</time></trkpt>
			<trkpt lat="56.751488" lon="36.011692"><time>1970-01-01T00:00:01.000Z</time></trkpt>
			<trkpt lat="56.751667" lon="36.011612"><time>1970-01-01T00:00:01.000Z</time></trkpt>
			<trkpt lat="56.751870" lon="36.011553"><time>1970-01-01T00:00:01.000Z</time></trkpt>
			<trkpt lat="56.752029" lon="36.011649"><time>1970-01-01T00:00:01.000Z</time></trkpt>
			<trkpt lat="56.752217" lon="36.011628"><time>1970-01-01T00:00:01.000Z</time></trkpt>
			<trkpt lat="56.752288" lon="36.011714"><time>1970-01-01T00:00:01.000Z</time></trkpt>
			<trkpt lat="56.752593" lon="36.011746"><time>1970-01-01T00:00:01.000Z</time></trkpt>
			<trkpt lat="56.752823" lon="36.012347"><time>1970-01-01T00:00:01.000Z</time></trkpt>
			<trkpt lat="56.753135" lon="36.013001"><time>1970-01-01T00:00:01.000Z</time></trkpt>
			<trkpt lat="56.753243" lon="36.013189"><time>1970-01-01T00:00:01.000Z</time></trkpt>
			<trkpt lat="56.753376" lon="36.013119"><time>1970-01-01T00:00:01.000Z</time></trkpt>
			<trkpt lat="56.753476" lon="36.013087"><time>1970-01-01T00:00:01.000Z</time></trkpt>
			<trkpt lat="56.753529" lon="36.013001"><time>1970-01-01T00:00:01.000Z</time></trkpt>
			<trkpt lat="56.753611" lon="36.013173"><time>1970-01-01T00:00:01.000Z</time></trkpt>
			<trkpt lat="56.753735" lon="36.013205"><time>1970-01-01T00:00:01.000Z</time></trkpt>
			<trkpt lat="56.753805" lon="36.013334"><time>1970-01-01T00:00:01.000Z</time></trkpt>
			<trkpt lat="56.753988" lon="36.013473"><time>1970-01-01T00:00:01.000Z</time></trkpt>
			<trkpt lat="56.754217" lon="36.013355"><time>1970-01-01T00:00:01.000Z</time></trkpt>
			<trkpt lat="56.754404" lon="36.013358"><time>1970-01-01T00:00:01.000Z</time></trkpt>
			<trkpt lat="56.754523" lon="36.013463"><time>1970-01-01T00:00:01.000Z</time></trkpt>
			<trkpt lat="56.754586" lon="36.013398"><time>1970-01-01T00:00:01.000Z</time></trkpt>
			<trkpt lat="56.754617" lon="36.013473"><time>1970-01-01T00:00:01.000Z</time></trkpt>
			<trkpt lat="56.754698" lon="36.013479"><time>1970-01-01T00:00:01.000Z</time></trkpt>
			<trkpt lat="56.754745" lon="36.013511"><time>1970-01-01T00:00:01.000Z</time></trkpt>
			<trkpt lat="56.754795" lon="36.013457"><time>1970-01-01T00:00:01.000Z</time></trkpt>
			<trkpt lat="56.754818" lon="36.013618"><time>1970-01-01T00:00:01.000Z</time></trkpt>
			<trkpt lat="56.754833" lon="36.013897"><time>1970-01-01T00:00:01.000Z</time></trkpt>
			<trkpt lat="56.754874" lon="36.013999"><time>1970-01-01T00:00:01.000Z</time></trkpt>
			<trkpt lat="56.754768" lon="36.014256"><time>1970-01-01T00:00:01.000Z</time></trkpt>
			<trkpt lat="56.754874" lon="36.014310"><time>1970-01-01T00:00:01.000Z</time></trkpt>
			<trkpt lat="56.755298" lon="36.014401"><time>1970-01-01T00:00:01.000Z</time></trkpt>
			<trkpt lat="56.755352" lon="36.014707"><time>1970-01-01T00:00:01.000Z</time></trkpt>
			<trkpt lat="56.755517" lon="36.014750"><time>1970-01-01T00:00:01.000Z</time></trkpt>
			<trkpt lat="56.755670" lon="36.014943"><time>1970-01-01T00:00:01.000Z</time></trkpt>
			<trkpt lat="56.755646" lon="36.015372"><time>1970-01-01T00:00:01.000Z</time></trkpt>
			<trkpt lat="56.755552" lon="36.015973"><time>1970-01-01T00:00:01.000Z</time></trkpt>
			<trkpt lat="56.755364" lon="36.016188"><time>1970-01-01T00:00:01.000Z</time></trkpt>
			<trkpt lat="56.755317" lon="36.016617"><time>1970-01-01T00:00:01.000Z</time></trkpt>
			<trkpt lat="56.755446" lon="36.016939"><time>1970-01-01T00:00:01.000Z</time></trkpt>
			<trkpt lat="56.755846" lon="36.017159"><time>1970-01-01T00:00:01.000Z</time></trkpt>
			<trkpt lat="56.756105" lon="36.017295"><time>1970-01-01T00:00:01.000Z</time></trkpt>
			<trkpt lat="56.756276" lon="36.017421"><time>1970-01-01T00:00:01.000Z</time></trkpt>
			<trkpt lat="56.756525" lon="36.017947"><time>1970-01-01T00:00:01.000Z</time></trkpt>
			<trkpt lat="56.756623" lon="36.018875"><time>1970-01-01T00:00:01.000Z</time></trkpt>
			<trkpt lat="56.757158" lon="36.019573"><time>1970-01-01T00:00:01.000Z</time></trkpt>
			<trkpt lat="56.757158" lon="36.020136"><time>1970-01-01T00:00:01.000Z</time></trkpt>
			<trkpt lat="56.757125" lon="36.020506"><time>1970-01-01T00:00:01.000Z</time></trkpt>
			<trkpt lat="56.757081" lon="36.021005"><time>1970-01-01T00:00:01.000Z</time></trkpt>
			<trkpt lat="56.757008" lon="36.021584"><time>1970-01-01T00:00:01.000Z</time></trkpt>
			<trkpt lat="56.756837" lon="36.022622"><time>1970-01-01T00:00:01.000Z</time></trkpt>
			<trkpt lat="56.756803" lon="36.022998"><time>1970-01-01T00:00:01.000Z</time></trkpt>
			<trkpt lat="56.756784" lon="36.023287"><time>1970-01-01T00:00:01.000Z</time></trkpt>
			<trkpt lat="56.756817" lon="36.023749"><time>1970-01-01T00:00:01.000Z</time></trkpt>
			<trkpt lat="56.756820" lon="36.024044"><time>1970-01-01T00:00:01.000Z</time></trkpt>
			<trkpt lat="56.756567" lon="36.024771"><time>1970-01-01T00:00:01.000Z</time></trkpt>
			<trkpt lat="56.756467" lon="36.025516"><time>1970-01-01T00:00:01.000Z</time></trkpt>
			<trkpt lat="56.756358" lon="36.026517"><time>1970-01-01T00:00:01.000Z</time></trkpt>
			<trkpt lat="56.756065" lon="36.028885"><time>1970-01-01T00:00:01.000Z</time></trkpt>
			<trkpt lat="56.755884" lon="36.030366"><time>1970-01-01T00:00:01.000Z</time></trkpt>
			<trkpt lat="56.755761" lon="36.030924"><time>1970-01-01T00:00:01.000Z</time></trkpt>
			<trkpt lat="56.755234" lon="36.032978"><time>1970-01-01T00:00:01.000Z</time></trkpt>
			<trkpt lat="56.754964" lon="36.034319"><time>1970-01-01T00:00:01.000Z</time></trkpt>
			<trkpt lat="56.754929" lon="36.034856"><time>1970-01-01T00:00:01.000Z</time></trkpt>
			<trkpt lat="56.755093" lon="36.035446"><time>1970-01-01T00:00:01.000Z</time></trkpt>
			<trkpt lat="56.755358" lon="36.035714"><time>1970-01-01T00:00:01.000Z</time></trkpt>
			<trkpt lat="56.755687" lon="36.035886"><time>1970-01-01T00:00:01.000Z</time></trkpt>
			<trkpt lat="56.755867" lon="36.036100"><time>1970-01-01T00:00:01.000Z</time></trkpt>
			<trkpt lat="56.756070" lon="36.036336"><time>1970-01-01T00:00:01.000Z</time></trkpt>
			<trkpt lat="56.756364" lon="36.036551"><time>1970-01-01T00:00:01.000Z</time></trkpt>
			<trkpt lat="56.756667" lon="36.036739"><time>1970-01-01T00:00:01.000Z</time></trkpt>
			<trkpt lat="56.756828" lon="36.036830"><time>1970-01-01T00:00:01.000Z</time></trkpt>
			<trkpt lat="56.757558" lon="36.035897"><time>1970-01-01T00:00:01.000Z</time></trkpt>
			<trkpt lat="56.757834" lon="36.035424"><time>1970-01-01T00:00:01.000Z</time></trkpt>
			<trkpt lat="56.758040" lon="36.034437"><time>1970-01-01T00:00:01.000Z</time></trkpt>
			<trkpt lat="56.758134" lon="36.033853"><time>1970-01-01T00:00:01.000Z</time></trkpt>
			<trkpt lat="56.758275" lon="36.033268"><time>1970-01-01T00:00:01.000Z</time></trkpt>
			<trkpt lat="56.758493" lon="36.032785"><time>1970-01-01T00:00:01.000Z</time></trkpt>
			<trkpt lat="56.758687" lon="36.032474"><time>1970-01-01T00:00:01.000Z</time></trkpt>
			<trkpt lat="56.758910" lon="36.031905"><time>1970-01-01T00:00:01.000Z</time></trkpt>
			<trkpt lat="56.759163" lon="36.031626"><time>1970-01-01T00:00:01.000Z</time></trkpt>
			<trkpt lat="56.759322" lon="36.030908"><time>1970-01-01T00:00:01.000Z</time></trkpt>
			<trkpt lat="56.759357" lon="36.030586"><time>1970-01-01T00:00:01.000Z</time></trkpt>
			<trkpt lat="56.759463" lon="36.030210"><time>1970-01-01T00:00:01.000Z</time></trkpt>
			<trkpt lat="56.759616" lon="36.030049"><time>1970-01-01T00:00:01.000Z</time></trkpt>
			<trkpt lat="56.759787" lon="36.029953"><time>1970-01-01T00:00:01.000Z</time></trkpt>
			<trkpt lat="56.759898" lon="36.029620"><time>1970-01-01T00:00:01.000Z</time></trkpt>
			<trkpt lat="56.759987" lon="36.029545"><time>1970-01-01T00:00:01.000Z</time></trkpt>
			<trkpt lat="56.760416" lon="36.029298"><time>1970-01-01T00:00:01.000Z</time></trkpt>
			<trkpt lat="56.760439" lon="36.029212"><time>1970-01-01T00:00:01.000Z</time></trkpt>
			<trkpt lat="56.760845" lon="36.028998"><time>1970-01-01T00:00:01.000Z</time></trkpt>
			<trkpt lat="56.760969" lon="36.028891"><time>1970-01-01T00:00:01.000Z</time></trkpt>
			<trkpt lat="56.761098" lon="36.028783"><time>1970-01-01T00:00:01.000Z</time></trkpt>
			<trkpt lat="56.761239" lon="36.028783"><time>1970-01-01T00:00:01.000Z</time></trkpt>
			<trkpt lat="56.761363" lon="36.028944"><time>1970-01-01T00:00:01.000Z</time></trkpt>
			<trkpt lat="56.761486" lon="36.029073"><time>1970-01-01T00:00:01.000Z</time></trkpt>
			<trkpt lat="56.761569" lon="36.029052"><time>1970-01-01T00:00:01.000Z</time></trkpt>
			<trkpt lat="56.761901" lon="36.028756"><time>1970-01-01T00:00:01.000Z</time></trkpt>
			<trkpt lat="56.761983" lon="36.028875"><time>1970-01-01T00:00:01.000Z</time></trkpt>
			<trkpt lat="56.762083" lon="36.028928"><time>1970-01-01T00:00:01.000Z</time></trkpt>
			<trkpt lat="56.762207" lon="36.028778"><time>1970-01-01T00:00:01.000Z</time></trkpt>
			<trkpt lat="56.762295" lon="36.028692"><time>1970-01-01T00:00:01.000Z</time></trkpt>
			<trkpt lat="56.762612" lon="36.028488"><time>1970-01-01T00:00:01.000Z</time></trkpt>
			<trkpt lat="56.762812" lon="36.028338"><time>1970-01-01T00:00:01.000Z</time></trkpt>
			<trkpt lat="56.762906" lon="36.028145"><time>1970-01-01T00:00:01.000Z</time></trkpt>
			<trkpt lat="56.763380" lon="36.028043"><time>1970-01-01T00:00:01.000Z</time></trkpt>
			<trkpt lat="56.763591" lon="36.027850"><time>1970-01-01T00:00:01.000Z</time></trkpt>
			<trkpt lat="56.763733" lon="36.027839"><time>1970-01-01T00:00:01.000Z</time></trkpt>
			<trkpt lat="56.763868" lon="36.027936"><time>1970-01-01T00:00:01.000Z</time></trkpt>
			<trkpt lat="56.763897" lon="36.028129"><time>1970-01-01T00:00:01.000Z</time></trkpt>
			<trkpt lat="56.763933" lon="36.028397"><time>1970-01-01T00:00:01.000Z</time></trkpt>
			<trkpt lat="56.764030" lon="36.028735"><time>1970-01-01T00:00:01.000Z</time></trkpt>
			<trkpt lat="56.764185" lon="36.028891"><time>1970-01-01T00:00:01.000Z</time></trkpt>
			<trkpt lat="56.764356" lon="36.028590"><time>1970-01-01T00:00:01.000Z</time></trkpt>
			<trkpt lat="56.764509" lon="36.028451"><time>1970-01-01T00:00:01.000Z</time></trkpt>
			<trkpt lat="56.764615" lon="36.028306"><time>1970-01-01T00:00:01.000Z</time></trkpt>
			<trkpt lat="56.764726" lon="36.028172"><time>1970-01-01T00:00:01.000Z</time></trkpt>
			<trkpt lat="56.764865" lon="36.028016"><time>1970-01-01T00:00:01.000Z</time></trkpt>
			<trkpt lat="56.764973" lon="36.027786"><time>1970-01-01T00:00:01.000Z</time></trkpt>
			<trkpt lat="56.765109" lon="36.027442"><time>1970-01-01T00:00:01.000Z</time></trkpt>
			<trkpt lat="56.765226" lon="36.027045"><time>1970-01-01T00:00:01.000Z</time></trkpt>
			<trkpt lat="56.765479" lon="36.026444"><time>1970-01-01T00:00:01.000Z</time></trkpt>
			<trkpt lat="56.765614" lon="36.026155"><time>1970-01-01T00:00:01.000Z</time></trkpt>
			<trkpt lat="56.765996" lon="36.025919"><time>1970-01-01T00:00:01.000Z</time></trkpt>
			<trkpt lat="56.766132" lon="36.025887"><time>1970-01-01T00:00:01.000Z</time></trkpt>
			<trkpt lat="56.766226" lon="36.025747"><time>1970-01-01T00:00:01.000Z</time></trkpt>
			<trkpt lat="56.766526" lon="36.025307"><time>1970-01-01T00:00:01.000Z</time></trkpt>
			<trkpt lat="56.766649" lon="36.025017"><time>1970-01-01T00:00:01.000Z</time></trkpt>
			<trkpt lat="56.766679" lon="36.024545"><time>1970-01-01T00:00:01.000Z</time></trkpt>
			<trkpt lat="56.767002" lon="36.024041"><time>1970-01-01T00:00:01.000Z</time></trkpt>
			<trkpt lat="56.767155" lon="36.023709"><time>1970-01-01T00:00:01.000Z</time></trkpt>
			<trkpt lat="56.767478" lon="36.023269"><time>1970-01-01T00:00:01.000Z</time></trkpt>
			<trkpt lat="56.767660" lon="36.023086"><time>1970-01-01T00:00:01.000Z</time></trkpt>
			<trkpt lat="56.767825" lon="36.022840"><time>1970-01-01T00:00:01.000Z</time></trkpt>
			<trkpt lat="56.767907" lon="36.022668"><time>1970-01-01T00:00:01.000Z</time></trkpt>
			<trkpt lat="56.767902" lon="36.022518"><time>1970-01-01T00:00:01.000Z</time></trkpt>
			<trkpt lat="56.767831" lon="36.022292"><time>1970-01-01T00:00:01.000Z</time></trkpt>
			<trkpt lat="56.767649" lon="36.021477"><time>1970-01-01T00:00:01.000Z</time></trkpt>
			<trkpt lat="56.767684" lon="36.021262"><time>1970-01-01T00:00:01.000Z</time></trkpt>
			<trkpt lat="56.767760" lon="36.021080"><time>1970-01-01T00:00:01.000Z</time></trkpt>
			<trkpt lat="56.767737" lon="36.020855"><time>1970-01-01T00:00:01.000Z</time></trkpt>
			<trkpt lat="56.767749" lon="36.020662"><time>1970-01-01T00:00:01.000Z</time></trkpt>
			<trkpt lat="56.767778" lon="36.020468"><time>1970-01-01T00:00:01.000Z</time></trkpt>
			<trkpt lat="56.767631" lon="36.020254"><time>1970-01-01T00:00:01.000Z</time></trkpt>
			<trkpt lat="56.767431" lon="36.020007"><time>1970-01-01T00:00:01.000Z</time></trkpt>
			<trkpt lat="56.767255" lon="36.019900"><time>1970-01-01T00:00:01.000Z</time></trkpt>
			<trkpt lat="56.767146" lon="36.019744"><time>1970-01-01T00:00:01.000Z</time></trkpt>
			<trkpt lat="56.767120" lon="36.019621"><time>1970-01-01T00:00:01.000Z</time></trkpt>
			<trkpt lat="56.767125" lon="36.019449"><time>1970-01-01T00:00:01.000Z</time></trkpt>
			<trkpt lat="56.767167" lon="36.019353"><time>1970-01-01T00:00:01.000Z</time></trkpt>
			<trkpt lat="56.767155" lon="36.019063"><time>1970-01-01T00:00:01.000Z</time></trkpt>
			<trkpt lat="56.767190" lon="36.018784"><time>1970-01-01T00:00:01.000Z</time></trkpt>
			<trkpt lat="56.766926" lon="36.018537"><time>1970-01-01T00:00:01.000Z</time></trkpt>
			<trkpt lat="56.766702" lon="36.018291"><time>1970-01-01T00:00:01.000Z</time></trkpt>
			<trkpt lat="56.766637" lon="36.018108"><time>1970-01-01T00:00:01.000Z</time></trkpt>
			<trkpt lat="56.766573" lon="36.017883"><time>1970-01-01T00:00:01.000Z</time></trkpt>
			<trkpt lat="56.766485" lon="36.017754"><time>1970-01-01T00:00:01.000Z</time></trkpt>
			<trkpt lat="56.766308" lon="36.017722"><time>1970-01-01T00:00:01.000Z</time></trkpt>
			<trkpt lat="56.766161" lon="36.017733"><time>1970-01-01T00:00:01.000Z</time></trkpt>
			<trkpt lat="56.766155" lon="36.017615"><time>1970-01-01T00:00:01.000Z</time></trkpt>
			<trkpt lat="56.766243" lon="36.017464"><time>1970-01-01T00:00:01.000Z</time></trkpt>
			<trkpt lat="56.766373" lon="36.016638"><time>1970-01-01T00:00:01.000Z</time></trkpt>
			<trkpt lat="56.766420" lon="36.016316"><time>1970-01-01T00:00:01.000Z</time></trkpt>
			<trkpt lat="56.766526" lon="36.015941"><time>1970-01-01T00:00:01.000Z</time></trkpt>
			<trkpt lat="56.766573" lon="36.015780"><time>1970-01-01T00:00:01.000Z</time></trkpt>
			<trkpt lat="56.766537" lon="36.015522"><time>1970-01-01T00:00:01.000Z</time></trkpt>
			<trkpt lat="56.766461" lon="36.015319"><time>1970-01-01T00:00:01.000Z</time></trkpt>
			<trkpt lat="56.766002" lon="36.015072"><time>1970-01-01T00:00:01.000Z</time></trkpt>
			<trkpt lat="56.765614" lon="36.014868"><time>1970-01-01T00:00:01.000Z</time></trkpt>
			<trkpt lat="56.765367" lon="36.014643"><time>1970-01-01T00:00:01.000Z</time></trkpt>
			<trkpt lat="56.764979" lon="36.014396"><time>1970-01-01T00:00:01.000Z</time></trkpt>
			<trkpt lat="56.764544" lon="36.014149"><time>1970-01-01T00:00:01.000Z</time></trkpt>
			<trkpt lat="56.764085" lon="36.013838"><time>1970-01-01T00:00:01.000Z</time></trkpt>
			<trkpt lat="56.763541" lon="36.013511"><time>1970-01-01T00:00:01.000Z</time></trkpt>
			<trkpt lat="56.763195" lon="36.013243"><time>1970-01-01T00:00:01.000Z</time></trkpt>
			<trkpt lat="56.762706" lon="36.012835"><time>1970-01-01T00:00:01.000Z</time></trkpt>
			<trkpt lat="56.762395" lon="36.012481"><time>1970-01-01T00:00:01.000Z</time></trkpt>
			<trkpt lat="56.762207" lon="36.012191"><time>1970-01-01T00:00:01.000Z</time></trkpt>
			<trkpt lat="56.762157" lon="36.011982"><time>1970-01-01T00:00:01.000Z</time></trkpt>
			<trkpt lat="56.762324" lon="36.011537"><time>1970-01-01T00:00:01.000Z</time></trkpt>
			<trkpt lat="56.762642" lon="36.010721"><time>1970-01-01T00:00:01.000Z</time></trkpt>
			<trkpt lat="56.763033" lon="36.009686"><time>1970-01-01T00:00:01.000Z</time></trkpt>
			<trkpt lat="56.763333" lon="36.009128"><time>1970-01-01T00:00:01.000Z</time></trkpt>
			<trkpt lat="56.763697" lon="36.008452"><time>1970-01-01T00:00:01.000Z</time></trkpt>
			<trkpt lat="56.763997" lon="36.007615"><time>1970-01-01T00:00:01.000Z</time></trkpt>
			<trkpt lat="56.764215" lon="36.006961"><time>1970-01-01T00:00:01.000Z</time></trkpt>
			<trkpt lat="56.764368" lon="36.006500"><time>1970-01-01T00:00:01.000Z</time></trkpt>
			<trkpt lat="56.764509" lon="36.005909"><time>1970-01-01T00:00:01.000Z</time></trkpt>
			<trkpt lat="56.764432" lon="36.005609"><time>1970-01-01T00:00:01.000Z</time></trkpt>
			<trkpt lat="56.764368" lon="36.005534"><time>1970-01-01T00:00:01.000Z</time></trkpt>
			<trkpt lat="56.764356" lon="36.005266"><time>1970-01-01T00:00:01.000Z</time></trkpt>
			<trkpt lat="56.764203" lon="36.004987"><time>1970-01-01T00:00:01.000Z</time></trkpt>
			<trkpt lat="56.764062" lon="36.004826"><time>1970-01-01T00:00:01.000Z</time></trkpt>
			<trkpt lat="56.763997" lon="36.004729"><time>1970-01-01T00:00:01.000Z</time></trkpt>
			<trkpt lat="56.763891" lon="36.004633"><time>1970-01-01T00:00:01.000Z</time></trkpt>
			<trkpt lat="56.763756" lon="36.004300"><time>1970-01-01T00:00:01.000Z</time></trkpt>
			<trkpt lat="56.763703" lon="36.003946"><time>1970-01-01T00:00:01.000Z</time></trkpt>
			<trkpt lat="56.763756" lon="36.003549"><time>1970-01-01T00:00:01.000Z</time></trkpt>
			<trkpt lat="56.763791" lon="36.003313"><time>1970-01-01T00:00:01.000Z</time></trkpt>
			<trkpt lat="56.763721" lon="36.003098"><time>1970-01-01T00:00:01.000Z</time></trkpt>
			<trkpt lat="56.763633" lon="36.002873"><time>1970-01-01T00:00:01.000Z</time></trkpt>
			<trkpt lat="56.763415" lon="36.002637"><time>1970-01-01T00:00:01.000Z</time></trkpt>
			<trkpt lat="56.763303" lon="36.002444"><time>1970-01-01T00:00:01.000Z</time></trkpt>
			<trkpt lat="56.763233" lon="36.002347"><time>1970-01-01T00:00:01.000Z</time></trkpt>
			<trkpt lat="56.763074" lon="36.002219"><time>1970-01-01T00:00:01.000Z</time></trkpt>
			<trkpt lat="56.762968" lon="36.002069"><time>1970-01-01T00:00:01.000Z</time></trkpt>
			<trkpt lat="56.762927" lon="36.001951"><time>1970-01-01T00:00:01.000Z</time></trkpt>
			<trkpt lat="56.762798" lon="36.001779"><time>1970-01-01T00:00:01.000Z</time></trkpt>
			<trkpt lat="56.762674" lon="36.001478"><time>1970-01-01T00:00:01.000Z</time></trkpt>
			<trkpt lat="56.762562" lon="36.001414"><time>1970-01-01T00:00:01.000Z</time></trkpt>
			<trkpt lat="56.762486" lon="36.001446"><time>1970-01-01T00:00:01.000Z</time></trkpt>
			<trkpt lat="56.762292" lon="36.001596"><time>1970-01-01T00:00:01.000Z</time></trkpt>
			<trkpt lat="56.762115" lon="36.001757"><time>1970-01-01T00:00:01.000Z</time></trkpt>
			<trkpt lat="56.761933" lon="36.001854"><time>1970-01-01T00:00:01.000Z</time></trkpt>
			<trkpt lat="56.761821" lon="36.001897"><time>1970-01-01T00:00:01.000Z</time></trkpt>
			<trkpt lat="56.761721" lon="36.001886"><time>1970-01-01T00:00:01.000Z</time></trkpt>
			<trkpt lat="56.761551" lon="36.001854"><time>1970-01-01T00:00:01.000Z</time></trkpt>
			<trkpt lat="56.761404" lon="36.001843"><time>1970-01-01T00:00:01.000Z</time></trkpt>
			<trkpt lat="56.761316" lon="36.001865"><time>1970-01-01T00:00:01.000Z</time></trkpt>
			<trkpt lat="56.761216" lon="36.001961"><time>1970-01-01T00:00:01.000Z</time></trkpt>
			<trkpt lat="56.761039" lon="36.002444"><time>1970-01-01T00:00:01.000Z</time></trkpt>
			<trkpt lat="56.760957" lon="36.002820"><time>1970-01-01T00:00:01.000Z</time></trkpt>
			<trkpt lat="56.760963" lon="36.003045"><time>1970-01-01T00:00:01.000Z</time></trkpt>
			<trkpt lat="56.760863" lon="36.003560"><time>1970-01-01T00:00:01.000Z</time></trkpt>
			<trkpt lat="56.760739" lon="36.004204"><time>1970-01-01T00:00:01.000Z</time></trkpt>
			<trkpt lat="56.760592" lon="36.004354"><time>1970-01-01T00:00:01.000Z</time></trkpt>
			<trkpt lat="56.760422" lon="36.004311"><time>1970-01-01T00:00:01.000Z</time></trkpt>
			<trkpt lat="56.760263" lon="36.004332"><time>1970-01-01T00:00:01.000Z</time></trkpt>
			<trkpt lat="56.760151" lon="36.004386"><time>1970-01-01T00:00:01.000Z</time></trkpt>
			<trkpt lat="56.760034" lon="36.004611"><time>1970-01-01T00:00:01.000Z</time></trkpt>
			<trkpt lat="56.759945" lon="36.004885"><time>1970-01-01T00:00:01.000Z</time></trkpt>
			<trkpt lat="56.759816" lon="36.004987"><time>1970-01-01T00:00:01.000Z</time></trkpt>
			<trkpt lat="56.759628" lon="36.005083"><time>1970-01-01T00:00:01.000Z</time></trkpt>
			<trkpt lat="56.759487" lon="36.005298"><time>1970-01-01T00:00:01.000Z</time></trkpt>
			<trkpt lat="56.759328" lon="36.005609"><time>1970-01-01T00:00:01.000Z</time></trkpt>
			<trkpt lat="56.759199" lon="36.005802"><time>1970-01-01T00:00:01.000Z</time></trkpt>
			<trkpt lat="56.759057" lon="36.005920"><time>1970-01-01T00:00:01.000Z</time></trkpt>
			<trkpt lat="56.759016" lon="36.006070"><time>1970-01-01T00:00:01.000Z</time></trkpt>
			<trkpt lat="56.758975" lon="36.006446"><time>1970-01-01T00:00:01.000Z</time></trkpt>
			<trkpt lat="56.759004" lon="36.006618"><time>1970-01-01T00:00:01.000Z</time></trkpt>
			<trkpt lat="56.759104" lon="36.006832"><time>1970-01-01T00:00:01.000Z</time></trkpt>
			<trkpt lat="56.759234" lon="36.006982"><time>1970-01-01T00:00:01.000Z</time></trkpt>
			<trkpt lat="56.759346" lon="36.007261"><time>1970-01-01T00:00:01.000Z</time></trkpt>
			<trkpt lat="56.759351" lon="36.007390"><time>1970-01-01T00:00:01.000Z</time></trkpt>
			<trkpt lat="56.759313" lon="36.007771"><time>1970-01-01T00:00:01.000Z</time></trkpt>
			<trkpt lat="56.759246" lon="36.007980"><time>1970-01-01T00:00:01.000Z</time></trkpt>
			<trkpt lat="56.759146" lon="36.008162"><time>1970-01-01T00:00:01.000Z</time></trkpt>
			<trkpt lat="56.759063" lon="36.008484"><time>1970-01-01T00:00:01.000Z</time></trkpt>
			<trkpt lat="56.759057" lon="36.008881"><time>1970-01-01T00:00:01.000Z</time></trkpt>
			<trkpt lat="56.759081" lon="36.009182"><time>1970-01-01T00:00:01.000Z</time></trkpt>
			<trkpt lat="56.758899" lon="36.009686"><time>1970-01-01T00:00:01.000Z</time></trkpt>
			<trkpt lat="56.758852" lon="36.009911"><time>1970-01-01T00:00:01.000Z</time></trkpt>
			<trkpt lat="56.758731" lon="36.009943"><time>1970-01-01T00:00:01.000Z</time></trkpt>
			<trkpt lat="56.758622" lon="36.009933"><time>1970-01-01T00:00:01.000Z</time></trkpt>
			<trkpt lat="56.758487" lon="36.010029"><time>1970-01-01T00:00:01.000Z</time></trkpt>
			<trkpt lat="56.758310" lon="36.010126"><time>1970-01-01T00:00:01.000Z</time></trkpt>
			<trkpt lat="56.758234" lon="36.010083"><time>1970-01-01T00:00:01.000Z</time></trkpt>
			<trkpt lat="56.758143" lon="36.010094"><time>1970-01-01T00:00:01.000Z</time></trkpt>
			<trkpt lat="56.758066" lon="36.010158"><time>1970-01-01T00:00:01.000Z</time></trkpt>
			<trkpt lat="56.757913" lon="36.010040"><time>1970-01-01T00:00:01.000Z</time></trkpt>
			<trkpt lat="56.757802" lon="36.010029"><time>1970-01-01T00:00:01.000Z</time></trkpt>
			<trkpt lat="56.757708" lon="36.010051"><time>1970-01-01T00:00:01.000Z</time></trkpt>
			<trkpt lat="56.757558" lon="36.009997"><time>1970-01-01T00:00:01.000Z</time></trkpt>
			<trkpt lat="56.757499" lon="36.010019"><time>1970-01-01T00:00:01.000Z</time></trkpt>
			<trkpt lat="56.757417" lon="36.009986"><time>1970-01-01T00:00:01.000Z</time></trkpt>
			<trkpt lat="56.757317" lon="36.009986"><time>1970-01-01T00:00:01.000Z</time></trkpt>
			<trkpt lat="56.757217" lon="36.010045"><time>1970-01-01T00:00:01.000Z</time></trkpt>
			<trkpt lat="56.757175" lon="36.010126"><time>1970-01-01T00:00:01.000Z</time></trkpt>
			<trkpt lat="56.757043" lon="36.010051"><time>1970-01-01T00:00:01.000Z</time></trkpt>
			<trkpt lat="56.756905" lon="36.009986"><time>1970-01-01T00:00:01.000Z</time></trkpt>
			<trkpt lat="56.756834" lon="36.009954"><time>1970-01-01T00:00:01.000Z</time></trkpt>
			<trkpt lat="56.756723" lon="36.010104"><time>1970-01-01T00:00:01.000Z</time></trkpt>
			<trkpt lat="56.756646" lon="36.010115"><time>1970-01-01T00:00:01.000Z</time></trkpt>
			<trkpt lat="56.756575" lon="36.010062"><time>1970-01-01T00:00:01.000Z</time></trkpt>
			<trkpt lat="56.756505" lon="36.010019"><time>1970-01-01T00:00:01.000Z</time></trkpt>
			<trkpt lat="56.756434" lon="36.009954"><time>1970-01-01T00:00:01.000Z</time></trkpt>
			<trkpt lat="56.756378" lon="36.009922"><time>1970-01-01T00:00:01.000Z</time></trkpt>
			<trkpt lat="56.756323" lon="36.009938"><time>1970-01-01T00:00:01.000Z</time></trkpt>
			<trkpt lat="56.756252" lon="36.009906"><time>1970-01-01T00:00:01.000Z</time></trkpt>
			<trkpt lat="56.756211" lon="36.009874"><time>1970-01-01T00:00:01.000Z</time></trkpt>
			<trkpt lat="56.756181" lon="36.009713"><time>1970-01-01T00:00:01.000Z</time></trkpt>
			<trkpt lat="56.756093" lon="36.009681"><time>1970-01-01T00:00:01.000Z</time></trkpt>
			<trkpt lat="56.755999" lon="36.009659"><time>1970-01-01T00:00:01.000Z</time></trkpt>
			<trkpt lat="56.755917" lon="36.009616"><time>1970-01-01T00:00:01.000Z</time></trkpt>
			<trkpt lat="56.755793" lon="36.009600"><time>1970-01-01T00:00:01.000Z</time></trkpt>
			<trkpt lat="56.755799" lon="36.009750"><time>1970-01-01T00:00:01.000Z</time></trkpt>
			<trkpt lat="56.755723" lon="36.009718"><time>1970-01-01T00:00:01.000Z</time></trkpt>
			<trkpt lat="56.755664" lon="36.009665"><time>1970-01-01T00:00:01.000Z</time></trkpt>
			<trkpt lat="56.755587" lon="36.009734"><time>1970-01-01T00:00:01.000Z</time></trkpt>
			<trkpt lat="56.755552" lon="36.009847"><time>1970-01-01T00:00:01.000Z</time></trkpt>
			<trkpt lat="56.755505" lon="36.010233"><time>1970-01-01T00:00:01.000Z</time></trkpt>
			<trkpt lat="56.755552" lon="36.010383"><time>1970-01-01T00:00:01.000Z</time></trkpt>
			<trkpt lat="56.755593" lon="36.010641"><time>1970-01-01T00:00:01.000Z</time></trkpt>
			<trkpt lat="56.755576" lon="36.010802"><time>1970-01-01T00:00:01.000Z</time></trkpt>
			<trkpt lat="56.755470" lon="36.011006"><time>1970-01-01T00:00:01.000Z</time></trkpt>
			<trkpt lat="56.755440" lon="36.011177"><time>1970-01-01T00:00:01.000Z</time></trkpt>
			<trkpt lat="56.755446" lon="36.011338"><time>1970-01-01T00:00:01.000Z</time></trkpt>
			<trkpt lat="56.755393" lon="36.011435"><time>1970-01-01T00:00:01.000Z</time></trkpt>
			<trkpt lat="56.755323" lon="36.011521"><time>1970-01-01T00:00:01.000Z</time></trkpt>
			<trkpt lat="56.755258" lon="36.011478"><time>1970-01-01T00:00:01.000Z</time></trkpt>
			<trkpt lat="56.755187" lon="36.011649"><time>1970-01-01T00:00:01.000Z</time></trkpt>
			<trkpt lat="56.755105" lon="36.011746"><time>1970-01-01T00:00:01.000Z</time></trkpt>
			<trkpt lat="56.755040" lon="36.011821"><time>1970-01-01T00:00:01.000Z</time></trkpt>
			<trkpt lat="56.754993" lon="36.011907"><time>1970-01-01T00:00:01.000Z</time></trkpt>
			<trkpt lat="56.754852" lon="36.011993"><time>1970-01-01T00:00:01.000Z</time></trkpt>
			<trkpt lat="56.754799" lon="36.012229"><time>1970-01-01T00:00:01.000Z</time></trkpt>
			<trkpt lat="56.754723" lon="36.012304"><time>1970-01-01T00:00:01.000Z</time></trkpt>
			<trkpt lat="56.754658" lon="36.012540"><time>1970-01-01T00:00:01.000Z</time></trkpt>
			<trkpt lat="56.754670" lon="36.012701"><time>1970-01-01T00:00:01.000Z</time></trkpt>
			<trkpt lat="56.754670" lon="36.012915"><time>1970-01-01T00:00:01.000Z</time></trkpt>
			<trkpt lat="56.754605" lon="36.013066"><time>1970-01-01T00:00:01.000Z</time></trkpt>
			<trkpt lat="56.754546" lon="36.013237"><time>1970-01-01T00:00:01.000Z</time></trkpt>
			<trkpt lat="56.754552" lon="36.013393"><time>1970-01-01T00:00:01.000Z</time></trkpt>
			<trkpt lat="56.754626" lon="36.013465"><time>1970-01-01T00:00:01.000Z</time></trkpt>
			<trkpt lat="56.754720" lon="36.013471"><time>1970-01-01T00:00:01.000Z</time></trkpt>
			<trkpt lat="56.754742" lon="36.013505"><time>1970-01-01T00:00:01.000Z</time></trkpt>
			<trkpt lat="56.754792" lon="36.013465"><time>1970-01-01T00:00:01.000Z</time></trkpt>
			<trkpt lat="56.754815" lon="36.013629"><time>1970-01-01T00:00:01.000Z</time></trkpt>
			<trkpt lat="56.754829" lon="36.013878"><time>1970-01-01T00:00:01.000Z</time></trkpt>
			<trkpt lat="56.754864" lon="36.013999"><time>1970-01-01T00:00:01.000Z</time></trkpt>
			<trkpt lat="56.754767" lon="36.014254"><time>1970-01-01T00:00:01.000Z</time></trkpt>
			<trkpt lat="56.754926" lon="36.014321"><time>1970-01-01T00:00:01.000Z</time></trkpt>
			<trkpt lat="56.755226" lon="36.014393"><time>1970-01-01T00:00:01.000Z</time></trkpt>
			<trkpt lat="56.755296" lon="36.014407"><time>1970-01-01T00:00:01.000Z</time></trkpt>
			<trkpt lat="56.755351" lon="36.014702"><time>1970-01-01T00:00:01.000Z</time></trkpt>
			<trkpt lat="56.755514" lon="36.014769"><time>1970-01-01T00:00:01.000Z</time></trkpt>
			<trkpt lat="56.755673" lon="36.014951"><time>1970-01-01T00:00:01.000Z</time></trkpt>
			<trkpt lat="56.755634" lon="36.015461"><time>1970-01-01T00:00:01.000Z</time></trkpt>
			<trkpt lat="56.755540" lon="36.016021"><time>1970-01-01T00:00:01.000Z</time></trkpt>
			<trkpt lat="56.755352" lon="36.016198"><time>1970-01-01T00:00:01.000Z</time></trkpt>
			<trkpt lat="56.755315" lon="36.016625"><time>1970-01-01T00:00:01.000Z</time></trkpt>
			<trkpt lat="56.755445" lon="36.016928"><time>1970-01-01T00:00:01.000Z</time></trkpt>
			<trkpt lat="56.755876" lon="36.017180"><time>1970-01-01T00:00:01.000Z</time></trkpt>
			<trkpt lat="56.756289" lon="36.017424"><time>1970-01-01T00:00:01.000Z</time></trkpt>
			<trkpt lat="56.756533" lon="36.017963"><time>1970-01-01T00:00:01.000Z</time></trkpt>
			<trkpt lat="56.756615" lon="36.018875"><time>1970-01-01T00:00:01.000Z</time></trkpt>
			<trkpt lat="56.757156" lon="36.019589"><time>1970-01-01T00:00:01.000Z</time></trkpt>
			<trkpt lat="56.757159" lon="36.020133"><time>1970-01-01T00:00:01.000Z</time></trkpt>
			<trkpt lat="56.757058" lon="36.021236"><time>1970-01-01T00:00:01.000Z</time></trkpt>
			<trkpt lat="56.756912" lon="36.022161"><time>1970-01-01T00:00:01.000Z</time></trkpt>
			<trkpt lat="56.756787" lon="36.023151"><time>1970-01-01T00:00:01.000Z</time></trkpt>
			<trkpt lat="56.756803" lon="36.023612"><time>1970-01-01T00:00:01.000Z</time></trkpt>
			<trkpt lat="56.756818" lon="36.024079"><time>1970-01-01T00:00:01.000Z</time></trkpt>
			<trkpt lat="56.756605" lon="36.024696"><time>1970-01-01T00:00:01.000Z</time></trkpt>
			<trkpt lat="56.756493" lon="36.025457"><time>1970-01-01T00:00:01.000Z</time></trkpt>
			<trkpt lat="56.756320" lon="36.026648"><time>1970-01-01T00:00:01.000Z</time></trkpt>
			<trkpt lat="56.756024" lon="36.029073"><time>1970-01-01T00:00:01.000Z</time></trkpt>
			<trkpt lat="56.755861" lon="36.030446"><time>1970-01-01T00:00:01.000Z</time></trkpt>
			<trkpt lat="56.755673" lon="36.031216"><time>1970-01-01T00:00:01.000Z</time></trkpt>
			<trkpt lat="56.755264" lon="36.032855"><time>1970-01-01T00:00:01.000Z</time></trkpt>
			<trkpt lat="56.754995" lon="36.034161"><time>1970-01-01T00:00:01.000Z</time></trkpt>
			<trkpt lat="56.754936" lon="36.034842"><time>1970-01-01T00:00:01.000Z</time></trkpt>
			<trkpt lat="56.755139" lon="36.035465"><time>1970-01-01T00:00:01.000Z</time></trkpt>
			<trkpt lat="56.755286" lon="36.035679"><time>1970-01-01T00:00:01.000Z</time></trkpt>
			<trkpt lat="56.755186" lon="36.036028"><time>1970-01-01T00:00:01.000Z</time></trkpt>
			<trkpt lat="56.755242" lon="36.036377"><time>1970-01-01T00:00:01.000Z</time></trkpt>
			<trkpt lat="56.755309" lon="36.036597"><time>1970-01-01T00:00:01.000Z</time></trkpt>
			<trkpt lat="56.755389" lon="36.036838"><time>1970-01-01T00:00:01.000Z</time></trkpt>
			<trkpt lat="56.755442" lon="36.037015"><time>1970-01-01T00:00:01.000Z</time></trkpt>
			<trkpt lat="56.755414" lon="36.037318"><time>1970-01-01T00:00:01.000Z</time></trkpt>
			<trkpt lat="56.755371" lon="36.037594"><time>1970-01-01T00:00:01.000Z</time></trkpt>
			<trkpt lat="56.755381" lon="36.037836"><time>1970-01-01T00:00:01.000Z</time></trkpt>
			<trkpt lat="56.755498" lon="36.038099"><time>1970-01-01T00:00:01.000Z</time></trkpt>
			<trkpt lat="56.755608" lon="36.038088"><time>1970-01-01T00:00:01.000Z</time></trkpt>
			<trkpt lat="56.755708" lon="36.037627"><time>1970-01-01T00:00:01.000Z</time></trkpt>
		</trkseg>
	</trk>
</gpx>